{"type":"FeatureCollection","metadata":{"dataset":"Rulers of Russia Territory Archive","polity_id":"grand-vladimir","project_owned_runtime_data":true,"external_runtime_dependencies":[],"review_status":"unreviewed-secondary-capture","bootstrap_source":"Cliopatria / Seshat Global History Databank","license":"CC BY 4.0","changed_from_source":true},"features":[{"type":"Feature","properties":{"polity_id":"grand-vladimir","name":"Principality of Rostov-Suzdal","start_date":1056,"end_date":1071,"status":"provisional-secondary-capture","confidence":"unreviewed","legal_basis":[],"source_ids":["capture:cliopatria-v0.2.0"],"provenance":{"capture_source":"Cliopatria / Seshat Global History Databank","capture_version":"v0.2.0-compatible main snapshot","wikidata":"Q83546","wikipedia":"Vladimir-Suzdal","seshat_id":null,"source_area_km2":167085.08679604813,"captured_at":"2026-08-22"},"notes":"Bootstrap geometry only. Must be checked against Russian legal, treaty, atlas and scholarly sources before verified status."},"geometry":{"type":"MultiPolygon","coordinates":[[[[39.7890625,59.92485809326172],[40.0423583984375,59.85470962524414],[40.093631744384766,59.714515686035156],[40.275390625,59.714515686035156],[40.609432220458984,59.294734954833984],[41.021793365478516,59.15507125854492],[41.21245193481445,58.876129150390625],[41.39280319213867,58.876129150390625],[41.672447204589844,58.59769821166992],[41.63225555419922,58.45867156982422],[41.8614387512207,58.31977081298828],[41.821353912353516,58.180992126464844],[41.98048782348633,58.11164855957031],[41.97023010253906,57.7653923034668],[42.1090087890625,57.62710189819336],[42.010581970214844,57.28189468383789],[42.09946823120117,57.28189468383789],[42.002132415771484,56.937416076660156],[42.140586853027344,56.799827575683594],[42.04460525512695,56.45634460449219],[41.956363677978516,56.45634460449219],[41.975399017333984,56.524986267089844],[41.710514068603516,56.524986267089844],[39.415828704833984,56.182064056396484],[38.594242095947266,55.70311737060547],[37.84450149536133,55.498252868652344],[37.8124885559082,55.36180877685547],[36.64551544189453,55.225467681884766],[36.37188720703125,55.56651306152344],[35.89144515991211,55.77145767211914],[34.86773681640625,55.90821838378906],[34.911495208740234,56.11355972290039],[35.131900787353516,56.319149017333984],[35.20680618286133,56.662349700927734],[35.5298957824707,56.524986267089844],[36.106449127197266,56.731075286865234],[36.551456451416016,58.2503662109375],[36.461795806884766,58.2503662109375],[36.511962890625,58.45867156982422],[36.42213439941406,58.45867156982422],[36.450199127197266,58.94581604003906],[36.03256607055664,59.08528518676758],[35.99268341064453,59.294734954833984],[35.902156829833984,59.294734954833984],[35.913124084472656,59.714515686035156],[35.76533126831055,59.85470962524414],[35.8166389465332,60.065250396728516],[35.72545623779297,60.065250396728516],[35.84642028808594,60.557716369628906],[36.74334716796875,60.83990478515625],[38.32425308227539,60.91054153442383],[38.377506256103516,60.76930236816406],[39.28813171386719,60.416839599609375],[39.320613861083984,60.20578384399414],[39.50321960449219,60.20578384399414],[39.555091857910156,60.065250396728516],[39.80882263183594,59.99503707885742],[39.7890625,59.92485809326172]]],[[[38.416175842285156,60.91054153442383],[38.32425308227539,60.91054153442383],[38.343605041503906,60.9812126159668],[38.43559265136719,60.9812126159668],[38.416175842285156,60.91054153442383]]]]}},{"type":"Feature","properties":{"polity_id":"grand-vladimir","name":"Principality of Rostov-Suzdal","start_date":1072,"end_date":1093,"status":"provisional-secondary-capture","confidence":"unreviewed","legal_basis":[],"source_ids":["capture:cliopatria-v0.2.0"],"provenance":{"capture_source":"Cliopatria / Seshat Global History Databank","capture_version":"v0.2.0-compatible main snapshot","wikidata":"Q83546","wikipedia":"Vladimir-Suzdal","seshat_id":null,"source_area_km2":169857.167901193,"captured_at":"2026-08-22"},"notes":"Bootstrap geometry only. Must be checked against Russian legal, treaty, atlas and scholarly sources before verified status."},"geometry":{"type":"MultiPolygon","coordinates":[[[[39.7890625,59.92485809326172],[40.0423583984375,59.85470962524414],[40.093631744384766,59.714515686035156],[40.275390625,59.714515686035156],[40.609432220458984,59.294734954833984],[41.021793365478516,59.15507125854492],[41.21245193481445,58.876129150390625],[41.39280319213867,58.876129150390625],[41.672447204589844,58.59769821166992],[41.63225555419922,58.45867156982422],[41.8614387512207,58.31977081298828],[41.821353912353516,58.180992126464844],[41.98048782348633,58.11164855957031],[41.97023010253906,57.7653923034668],[42.1090087890625,57.62710189819336],[42.010581970214844,57.28189468383789],[42.09946823120117,57.28189468383789],[42.002132415771484,56.937416076660156],[42.140586853027344,56.799827575683594],[42.06369400024414,56.524986267089844],[40.33198165893555,56.319149017333984],[40.15491485595703,55.97663879394531],[39.751258850097656,55.77145767211914],[38.99554443359375,55.90821838378906],[37.84450149536133,55.498252868652344],[37.8124885559082,55.36180877685547],[36.64551544189453,55.225467681884766],[36.37188720703125,55.56651306152344],[35.89144515991211,55.77145767211914],[34.86773681640625,55.90821838378906],[34.911495208740234,56.11355972290039],[35.131900787353516,56.319149017333984],[35.20680618286133,56.662349700927734],[35.5298957824707,56.524986267089844],[36.106449127197266,56.731075286865234],[36.551456451416016,58.2503662109375],[36.461795806884766,58.2503662109375],[36.511962890625,58.45867156982422],[36.42213439941406,58.45867156982422],[36.450199127197266,58.94581604003906],[36.03256607055664,59.08528518676758],[35.99268341064453,59.294734954833984],[35.902156829833984,59.294734954833984],[35.913124084472656,59.714515686035156],[35.76533126831055,59.85470962524414],[35.8166389465332,60.065250396728516],[35.72545623779297,60.065250396728516],[35.84642028808594,60.557716369628906],[36.74334716796875,60.83990478515625],[38.32425308227539,60.91054153442383],[38.377506256103516,60.76930236816406],[39.28813171386719,60.416839599609375],[39.320613861083984,60.20578384399414],[39.50321960449219,60.20578384399414],[39.555091857910156,60.065250396728516],[39.80882263183594,59.99503707885742],[39.7890625,59.92485809326172]]],[[[38.416175842285156,60.91054153442383],[38.32425308227539,60.91054153442383],[38.343605041503906,60.9812126159668],[38.43559265136719,60.9812126159668],[38.416175842285156,60.91054153442383]]]]}},{"type":"Feature","properties":{"polity_id":"grand-vladimir","name":"Principality of Rostov-Suzdal","start_date":1094,"end_date":1125,"status":"provisional-secondary-capture","confidence":"unreviewed","legal_basis":[],"source_ids":["capture:cliopatria-v0.2.0"],"provenance":{"capture_source":"Cliopatria / Seshat Global History Databank","capture_version":"v0.2.0-compatible main snapshot","wikidata":"Q83546","wikipedia":"Vladimir-Suzdal","seshat_id":null,"source_area_km2":169731.09906929435,"captured_at":"2026-08-22"},"notes":"Bootstrap geometry only. Must be checked against Russian legal, treaty, atlas and scholarly sources before verified status."},"geometry":{"type":"MultiPolygon","coordinates":[[[[39.7890625,59.92485809326172],[40.0423583984375,59.85470962524414],[40.093631744384766,59.714515686035156],[40.275390625,59.714515686035156],[40.609432220458984,59.294734954833984],[41.021793365478516,59.15507125854492],[41.21245193481445,58.876129150390625],[41.39280319213867,58.876129150390625],[41.672447204589844,58.59769821166992],[41.63225555419922,58.45867156982422],[41.8614387512207,58.31977081298828],[41.821353912353516,58.180992126464844],[41.98048782348633,58.11164855957031],[41.97023010253906,57.7653923034668],[42.1090087890625,57.62710189819336],[42.010581970214844,57.28189468383789],[42.09946823120117,57.28189468383789],[42.002132415771484,56.937416076660156],[42.140586853027344,56.799827575683594],[42.06369400024414,56.524986267089844],[40.33198165893555,56.319149017333984],[40.15491485595703,55.97663879394531],[39.85636901855469,55.83982467651367],[39.57581329345703,55.77145767211914],[39.59304428100586,55.83982467651367],[38.99554443359375,55.90821838378906],[37.84450149536133,55.498252868652344],[37.8124885559082,55.36180877685547],[36.64551544189453,55.225467681884766],[36.37188720703125,55.56651306152344],[35.89144515991211,55.77145767211914],[34.86773681640625,55.90821838378906],[34.911495208740234,56.11355972290039],[35.131900787353516,56.319149017333984],[35.20680618286133,56.662349700927734],[35.5298957824707,56.524986267089844],[36.106449127197266,56.731075286865234],[36.551456451416016,58.2503662109375],[36.461795806884766,58.2503662109375],[36.511962890625,58.45867156982422],[36.42213439941406,58.45867156982422],[36.450199127197266,58.94581604003906],[36.03256607055664,59.08528518676758],[35.99268341064453,59.294734954833984],[35.902156829833984,59.294734954833984],[35.913124084472656,59.714515686035156],[35.76533126831055,59.85470962524414],[35.8166389465332,60.065250396728516],[35.72545623779297,60.065250396728516],[35.84642028808594,60.557716369628906],[36.74334716796875,60.83990478515625],[38.32425308227539,60.91054153442383],[38.377506256103516,60.76930236816406],[39.28813171386719,60.416839599609375],[39.320613861083984,60.20578384399414],[39.50321960449219,60.20578384399414],[39.555091857910156,60.065250396728516],[39.80882263183594,59.99503707885742],[39.7890625,59.92485809326172]]],[[[38.416175842285156,60.91054153442383],[38.32425308227539,60.91054153442383],[38.343605041503906,60.9812126159668],[38.43559265136719,60.9812126159668],[38.416175842285156,60.91054153442383]]]]}},{"type":"Feature","properties":{"polity_id":"grand-vladimir","name":"Principality of Rostov-Suzdal","start_date":1126,"end_date":1226,"status":"provisional-secondary-capture","confidence":"unreviewed","legal_basis":[],"source_ids":["capture:cliopatria-v0.2.0"],"provenance":{"capture_source":"Cliopatria / Seshat Global History Databank","capture_version":"v0.2.0-compatible main snapshot","wikidata":"Q83546","wikipedia":"Vladimir-Suzdal","seshat_id":null,"source_area_km2":245432.10634539317,"captured_at":"2026-08-22"},"notes":"Bootstrap geometry only. Must be checked against Russian legal, treaty, atlas and scholarly sources before verified status."},"geometry":{"type":"Polygon","coordinates":[[[46.0395393371582,60.628211975097656],[46.23678207397461,61.193458557128906],[46.35398864746094,61.264278411865234],[46.261749267578125,61.264278411865234],[46.387638092041016,61.618961334228516],[46.253116607666016,61.7611083984375],[44.633296966552734,61.90340805053711],[44.28272247314453,61.69001388549805],[43.42579650878906,61.618961334228516],[43.01226806640625,60.91054153442383],[42.199363708496094,60.065250396728516],[41.63859939575195,59.714515686035156],[41.59706497192383,59.574459075927734],[40.79048156738281,59.294734954833984],[40.609432220458984,59.294734954833984],[40.275390625,59.714515686035156],[39.860355377197266,59.85470962524414],[39.737457275390625,60.065250396728516],[39.320613861083984,60.20578384399414],[39.28813171386719,60.416839599609375],[38.377506256103516,60.76930236816406],[38.32425308227539,60.91054153442383],[36.74334716796875,60.83990478515625],[35.84642028808594,60.557716369628906],[35.72545623779297,60.065250396728516],[35.8166389465332,60.065250396728516],[35.76533126831055,59.85470962524414],[35.913124084472656,59.714515686035156],[35.902156829833984,59.294734954833984],[35.99268341064453,59.294734954833984],[36.03256607055664,59.08528518676758],[36.450199127197266,58.94581604003906],[36.42213439941406,58.45867156982422],[36.511962890625,58.45867156982422],[36.461795806884766,58.2503662109375],[36.551456451416016,58.2503662109375],[36.106449127197266,56.731075286865234],[35.5298957824707,56.524986267089844],[35.20680618286133,56.662349700927734],[35.131900787353516,56.319149017333984],[34.911495208740234,56.11355972290039],[34.86773681640625,55.90821838378906],[35.89144515991211,55.77145767211914],[36.37188720703125,55.56651306152344],[36.64551544189453,55.225467681884766],[37.8124885559082,55.36180877685547],[37.84450149536133,55.498252868652344],[38.99554443359375,55.90821838378906],[39.59304428100586,55.83982467651367],[39.57581329345703,55.77145767211914],[39.85636901855469,55.83982467651367],[40.15491485595703,55.97663879394531],[40.33198165893555,56.319149017333984],[42.06369400024414,56.524986267089844],[42.140586853027344,56.799827575683594],[42.44519805908203,56.937416076660156],[42.415470123291016,57.14401626586914],[42.593021392822266,57.14401626586914],[43.028709411621094,57.41988754272461],[43.00058364868164,57.62710189819336],[43.19940948486328,57.696231842041016],[43.19260025024414,57.97305679321289],[43.28203201293945,57.97305679321289],[43.53994369506836,58.528167724609375],[43.961334228515625,59.015533447265625],[44.932350158691406,59.504478454589844],[45.2044563293457,59.504478454589844],[45.15981674194336,59.64447021484375],[45.68439483642578,59.85470962524414],[46.0395393371582,60.628211975097656]]]}},{"type":"Feature","properties":{"polity_id":"grand-vladimir","name":"Principality of Rostov-Suzdal","start_date":1227,"end_date":1235,"status":"provisional-secondary-capture","confidence":"unreviewed","legal_basis":[],"source_ids":["capture:cliopatria-v0.2.0"],"provenance":{"capture_source":"Cliopatria / Seshat Global History Databank","capture_version":"v0.2.0-compatible main snapshot","wikidata":"Q83546","wikipedia":"Vladimir-Suzdal","seshat_id":null,"source_area_km2":250636.6087495145,"captured_at":"2026-08-22"},"notes":"Bootstrap geometry only. Must be checked against Russian legal, treaty, atlas and scholarly sources before verified status."},"geometry":{"type":"Polygon","coordinates":[[[46.0395393371582,60.628211975097656],[46.23678207397461,61.193458557128906],[46.35398864746094,61.264278411865234],[46.261749267578125,61.264278411865234],[46.387638092041016,61.618961334228516],[46.253116607666016,61.7611083984375],[44.633296966552734,61.90340805053711],[44.28272247314453,61.69001388549805],[43.42579650878906,61.618961334228516],[43.01226806640625,60.91054153442383],[42.199363708496094,60.065250396728516],[41.63859939575195,59.714515686035156],[41.59706497192383,59.574459075927734],[40.79048156738281,59.294734954833984],[40.609432220458984,59.294734954833984],[40.275390625,59.714515686035156],[39.860355377197266,59.85470962524414],[39.737457275390625,60.065250396728516],[39.320613861083984,60.20578384399414],[39.28813171386719,60.416839599609375],[38.377506256103516,60.76930236816406],[38.32425308227539,60.91054153442383],[36.74334716796875,60.83990478515625],[35.84642028808594,60.557716369628906],[35.72545623779297,60.065250396728516],[35.8166389465332,60.065250396728516],[35.76533126831055,59.85470962524414],[35.913124084472656,59.714515686035156],[35.902156829833984,59.294734954833984],[35.99268341064453,59.294734954833984],[36.03256607055664,59.08528518676758],[36.450199127197266,58.94581604003906],[36.42213439941406,58.45867156982422],[36.511962890625,58.45867156982422],[36.461795806884766,58.2503662109375],[36.551456451416016,58.2503662109375],[36.106449127197266,56.731075286865234],[35.5298957824707,56.524986267089844],[35.20680618286133,56.662349700927734],[35.131900787353516,56.319149017333984],[34.911495208740234,56.11355972290039],[34.86773681640625,55.90821838378906],[35.89144515991211,55.77145767211914],[36.37188720703125,55.56651306152344],[36.64551544189453,55.225467681884766],[37.8124885559082,55.36180877685547],[37.84450149536133,55.498252868652344],[38.99554443359375,55.90821838378906],[39.59304428100586,55.83982467651367],[39.57581329345703,55.77145767211914],[39.85636901855469,55.83982467651367],[40.15491485595703,55.97663879394531],[40.33198165893555,56.319149017333984],[41.710514068603516,56.524986267089844],[41.975399017333984,56.524986267089844],[42.05680847167969,56.182064056396484],[42.21389389038086,56.11355972290039],[42.301876068115234,56.11355972290039],[42.868499755859375,56.25059127807617],[43.12322998046875,56.524986267089844],[42.98603820800781,56.662349700927734],[43.02565383911133,56.799827575683594],[42.799652099609375,56.937416076660156],[42.839393615722656,57.07511901855469],[42.75067138671875,57.07511901855469],[42.83060073852539,57.35087585449219],[43.028709411621094,57.41988754272461],[43.00058364868164,57.62710189819336],[43.19940948486328,57.696231842041016],[43.19260025024414,57.97305679321289],[43.28203201293945,57.97305679321289],[43.69415283203125,58.73685073852539],[44.41146469116211,59.294734954833984],[45.2044563293457,59.504478454589844],[45.15981674194336,59.64447021484375],[45.68439483642578,59.85470962524414],[46.0395393371582,60.628211975097656]]]}},{"type":"Feature","properties":{"polity_id":"grand-vladimir","name":"Principality of Rostov-Suzdal","start_date":1236,"end_date":1240,"status":"provisional-secondary-capture","confidence":"unreviewed","legal_basis":[],"source_ids":["capture:cliopatria-v0.2.0"],"provenance":{"capture_source":"Cliopatria / Seshat Global History Databank","capture_version":"v0.2.0-compatible main snapshot","wikidata":"Q83546","wikipedia":"Vladimir-Suzdal","seshat_id":null,"source_area_km2":250485.74459520247,"captured_at":"2026-08-22"},"notes":"Bootstrap geometry only. Must be checked against Russian legal, treaty, atlas and scholarly sources before verified status."},"geometry":{"type":"Polygon","coordinates":[[[46.21188735961914,61.12267303466797],[46.328956604003906,61.193458557128906],[46.261749267578125,61.264278411865234],[46.387638092041016,61.618961334228516],[46.253116607666016,61.7611083984375],[44.633296966552734,61.90340805053711],[44.28272247314453,61.69001388549805],[43.42579650878906,61.618961334228516],[43.01226806640625,60.91054153442383],[42.199363708496094,60.065250396728516],[41.63859939575195,59.714515686035156],[41.59706497192383,59.574459075927734],[40.79048156738281,59.294734954833984],[40.609432220458984,59.294734954833984],[40.275390625,59.714515686035156],[39.860355377197266,59.85470962524414],[39.737457275390625,60.065250396728516],[39.320613861083984,60.20578384399414],[39.28813171386719,60.416839599609375],[38.377506256103516,60.76930236816406],[38.32425308227539,60.91054153442383],[36.74334716796875,60.83990478515625],[35.84642028808594,60.557716369628906],[35.72545623779297,60.065250396728516],[35.8166389465332,60.065250396728516],[35.76533126831055,59.85470962524414],[35.913124084472656,59.714515686035156],[35.902156829833984,59.294734954833984],[35.99268341064453,59.294734954833984],[36.03256607055664,59.08528518676758],[36.450199127197266,58.94581604003906],[36.42213439941406,58.45867156982422],[36.511962890625,58.45867156982422],[36.461795806884766,58.2503662109375],[36.551456451416016,58.2503662109375],[36.106449127197266,56.731075286865234],[35.5298957824707,56.524986267089844],[35.20680618286133,56.662349700927734],[35.131900787353516,56.319149017333984],[34.911495208740234,56.11355972290039],[34.86773681640625,55.90821838378906],[35.89144515991211,55.77145767211914],[36.37188720703125,55.56651306152344],[36.64551544189453,55.225467681884766],[37.8124885559082,55.36180877685547],[37.84450149536133,55.498252868652344],[38.99554443359375,55.90821838378906],[39.59304428100586,55.83982467651367],[39.57581329345703,55.77145767211914],[39.85636901855469,55.83982467651367],[40.15491485595703,55.97663879394531],[40.33198165893555,56.319149017333984],[41.710514068603516,56.524986267089844],[41.975399017333984,56.524986267089844],[42.05680847167969,56.182064056396484],[42.21389389038086,56.11355972290039],[42.868499755859375,56.25059127807617],[43.12322998046875,56.524986267089844],[42.98603820800781,56.662349700927734],[43.02565383911133,56.799827575683594],[42.799652099609375,56.937416076660156],[42.839393615722656,57.07511901855469],[42.75067138671875,57.07511901855469],[42.85072326660156,57.41988754272461],[42.93971633911133,57.41988754272461],[43.69415283203125,58.73685073852539],[44.41146469116211,59.294734954833984],[44.79619598388672,59.36461639404297],[45.27382278442383,59.714515686035156],[45.68439483642578,59.85470962524414],[45.82282257080078,59.99503707885742],[46.21188735961914,61.12267303466797]]]}},{"type":"Feature","properties":{"polity_id":"grand-vladimir","name":"Principality of Vladimir-Suzdal","start_date":1294,"end_date":1304,"status":"provisional-secondary-capture","confidence":"unreviewed","legal_basis":[],"source_ids":["capture:cliopatria-v0.2.0"],"provenance":{"capture_source":"Cliopatria / Seshat Global History Databank","capture_version":"v0.2.0-compatible main snapshot","wikidata":"Q83546","wikipedia":"Vladimir-Suzdal","seshat_id":"ru_vladimir_suzdal","source_area_km2":215167.69751531322,"captured_at":"2026-08-22"},"notes":"Bootstrap geometry only. Must be checked against Russian legal, treaty, atlas and scholarly sources before verified status."},"geometry":{"type":"Polygon","coordinates":[[[46.0395393371582,60.628211975097656],[46.23678207397461,61.193458557128906],[46.35398864746094,61.264278411865234],[46.261749267578125,61.264278411865234],[46.387638092041016,61.618961334228516],[46.253116607666016,61.7611083984375],[44.633296966552734,61.90340805053711],[44.28272247314453,61.69001388549805],[43.42579650878906,61.618961334228516],[43.01226806640625,60.91054153442383],[42.199363708496094,60.065250396728516],[41.63859939575195,59.714515686035156],[41.59706497192383,59.574459075927734],[40.79048156738281,59.294734954833984],[40.609432220458984,59.294734954833984],[40.275390625,59.714515686035156],[39.860355377197266,59.85470962524414],[39.737457275390625,60.065250396728516],[39.320613861083984,60.20578384399414],[39.28813171386719,60.416839599609375],[38.869571685791016,60.557716369628906],[38.54866027832031,59.714515686035156],[38.12971115112305,59.504478454589844],[38.03900909423828,59.504478454589844],[38.057376861572266,59.574459075927734],[37.694332122802734,59.574459075927734],[37.65807342529297,59.78459548950195],[37.49434280395508,59.85470962524414],[37.530792236328125,59.99503707885742],[37.366729736328125,60.065250396728516],[37.34852981567383,60.34645080566406],[37.257102966308594,60.34645080566406],[37.29450225830078,60.83990478515625],[36.74334716796875,60.83990478515625],[35.84642028808594,60.557716369628906],[35.72545623779297,60.065250396728516],[35.8166389465332,60.065250396728516],[35.76533126831055,59.85470962524414],[35.913124084472656,59.714515686035156],[35.95899200439453,59.15507125854492],[36.450199127197266,58.94581604003906],[36.42213439941406,58.45867156982422],[36.511962890625,58.45867156982422],[36.461795806884766,58.2503662109375],[36.551456451416016,58.2503662109375],[36.50153350830078,58.042335510253906],[36.591026306152344,58.042335510253906],[36.54853439331055,57.488929748535156],[37.20535659790039,57.62710189819336],[37.255943298339844,57.8345832824707],[37.846656799316406,57.696231842041016],[37.79916000366211,57.14401626586914],[37.283103942871094,57.21294021606445],[37.072513580322266,57.07511901855469],[36.80635070800781,57.07511901855469],[36.66921615600586,56.86860656738281],[35.841087341308594,56.731075286865234],[35.82560729980469,56.662349700927734],[36.07521438598633,56.59365463256836],[36.04415512084961,56.45634460449219],[36.277679443359375,56.319149017333984],[36.24665451049805,56.182064056396484],[36.391658782958984,56.04508590698242],[37.11101531982422,56.11355972290039],[37.31916427612305,56.25059127807617],[37.84767150878906,56.25059127807617],[38.16678237915039,56.11355972290039],[38.30949401855469,55.97663879394531],[38.276432037353516,55.83982467651367],[38.4354133605957,55.77145767211914],[38.40242385864258,55.63479995727539],[37.84450149536133,55.498252868652344],[37.8124885559082,55.36180877685547],[37.09760284423828,55.29362487792969],[37.08210754394531,55.225467681884766],[36.820152282714844,55.225467681884766],[36.861549377441406,55.021148681640625],[37.194801330566406,54.95309066772461],[37.312904357910156,55.089229583740234],[38.12992477416992,55.225467681884766],[38.94492721557617,55.70311737060547],[39.295616149902344,55.70311737060547],[39.3297233581543,55.83982467651367],[39.94414138793945,55.83982467651367],[40.15491485595703,55.97663879394531],[40.33198165893555,56.319149017333984],[41.975399017333984,56.524986267089844],[42.10203552246094,56.662349700927734],[42.03282928466797,56.731075286865234],[42.337066650390625,56.86860656738281],[42.415470123291016,57.14401626586914],[42.8105354309082,57.28189468383789],[42.83060073852539,57.35087585449219],[43.028709411621094,57.41988754272461],[43.00058364868164,57.62710189819336],[43.19940948486328,57.696231842041016],[43.19260025024414,57.97305679321289],[43.28203201293945,57.97305679321289],[43.53994369506836,58.528167724609375],[43.961334228515625,59.015533447265625],[44.932350158691406,59.504478454589844],[45.2044563293457,59.504478454589844],[45.15981674194336,59.64447021484375],[45.68439483642578,59.85470962524414],[46.0395393371582,60.628211975097656]]]}},{"type":"Feature","properties":{"polity_id":"grand-vladimir","name":"Principality of Vladimir-Suzdal","start_date":1305,"end_date":1313,"status":"provisional-secondary-capture","confidence":"unreviewed","legal_basis":[],"source_ids":["capture:cliopatria-v0.2.0"],"provenance":{"capture_source":"Cliopatria / Seshat Global History Databank","capture_version":"v0.2.0-compatible main snapshot","wikidata":"Q83546","wikipedia":"Vladimir-Suzdal","seshat_id":"ru_vladimir_suzdal","source_area_km2":188331.37527633936,"captured_at":"2026-08-22"},"notes":"Bootstrap geometry only. Must be checked against Russian legal, treaty, atlas and scholarly sources before verified status."},"geometry":{"type":"Polygon","coordinates":[[[46.0395393371582,60.628211975097656],[46.23678207397461,61.193458557128906],[46.35398864746094,61.264278411865234],[46.261749267578125,61.264278411865234],[46.387638092041016,61.618961334228516],[46.253116607666016,61.7611083984375],[44.633296966552734,61.90340805053711],[44.28272247314453,61.69001388549805],[43.42579650878906,61.618961334228516],[43.01226806640625,60.91054153442383],[42.199363708496094,60.065250396728516],[41.63859939575195,59.714515686035156],[41.59706497192383,59.574459075927734],[40.79048156738281,59.294734954833984],[40.609432220458984,59.294734954833984],[40.275390625,59.714515686035156],[39.860355377197266,59.85470962524414],[39.737457275390625,60.065250396728516],[39.320613861083984,60.20578384399414],[39.28813171386719,60.416839599609375],[38.869571685791016,60.557716369628906],[38.54866027832031,59.714515686035156],[38.12971115112305,59.504478454589844],[38.03900909423828,59.504478454589844],[38.057376861572266,59.574459075927734],[37.694332122802734,59.574459075927734],[37.65807342529297,59.78459548950195],[37.49434280395508,59.85470962524414],[37.530792236328125,59.99503707885742],[37.366729736328125,60.065250396728516],[37.34852981567383,60.34645080566406],[37.257102966308594,60.34645080566406],[37.29450225830078,60.83990478515625],[36.74334716796875,60.83990478515625],[35.84642028808594,60.557716369628906],[35.72545623779297,60.065250396728516],[35.8166389465332,60.065250396728516],[35.76533126831055,59.85470962524414],[35.913124084472656,59.714515686035156],[35.95899200439453,59.15507125854492],[36.450199127197266,58.94581604003906],[36.42213439941406,58.45867156982422],[36.511962890625,58.45867156982422],[36.461795806884766,58.2503662109375],[36.551456451416016,58.2503662109375],[36.50153350830078,58.042335510253906],[36.591026306152344,58.042335510253906],[36.54853439331055,57.488929748535156],[37.20535659790039,57.62710189819336],[37.255943298339844,57.8345832824707],[37.52391052246094,57.8345832824707],[37.5068359375,57.7653923034668],[37.846656799316406,57.696231842041016],[37.79916000366211,57.14401626586914],[38.04844665527344,57.07511901855469],[38.455238342285156,57.28189468383789],[38.81077194213867,57.28189468383789],[39.343719482421875,56.937416076660156],[39.29169845581055,56.387733459472656],[39.08085632324219,56.25059127807617],[39.31053161621094,56.11355972290039],[39.12027359008789,55.70311737060547],[39.295616149902344,55.70311737060547],[39.3297233581543,55.83982467651367],[39.94414138793945,55.83982467651367],[40.15491485595703,55.97663879394531],[40.33198165893555,56.319149017333984],[41.975399017333984,56.524986267089844],[42.10203552246094,56.662349700927734],[42.03282928466797,56.731075286865234],[42.337066650390625,56.86860656738281],[42.415470123291016,57.14401626586914],[42.8105354309082,57.28189468383789],[42.83060073852539,57.35087585449219],[43.028709411621094,57.41988754272461],[43.00058364868164,57.62710189819336],[43.19940948486328,57.696231842041016],[43.19260025024414,57.97305679321289],[43.28203201293945,57.97305679321289],[43.53994369506836,58.528167724609375],[43.961334228515625,59.015533447265625],[44.932350158691406,59.504478454589844],[45.2044563293457,59.504478454589844],[45.15981674194336,59.64447021484375],[45.68439483642578,59.85470962524414],[46.0395393371582,60.628211975097656]]]}},{"type":"Feature","properties":{"polity_id":"grand-vladimir","name":"Principality of Vladimir-Suzdal","start_date":1314,"end_date":1332,"status":"provisional-secondary-capture","confidence":"unreviewed","legal_basis":[],"source_ids":["capture:cliopatria-v0.2.0"],"provenance":{"capture_source":"Cliopatria / Seshat Global History Databank","capture_version":"v0.2.0-compatible main snapshot","wikidata":"Q83546","wikipedia":"Vladimir-Suzdal","seshat_id":"ru_vladimir_suzdal","source_area_km2":188919.7397591393,"captured_at":"2026-08-22"},"notes":"Bootstrap geometry only. Must be checked against Russian legal, treaty, atlas and scholarly sources before verified status."},"geometry":{"type":"Polygon","coordinates":[[[45.82282257080078,59.99503707885742],[46.387638092041016,61.618961334228516],[46.253116607666016,61.7611083984375],[46.067745208740234,61.7611083984375],[46.093017578125,61.832237243652344],[44.54047775268555,61.90340805053711],[44.492069244384766,61.7611083984375],[44.28272247314453,61.69001388549805],[43.541744232177734,61.69001388549805],[43.28691482543945,61.47697448730469],[43.01226806640625,60.91054153442383],[42.199363708496094,60.065250396728516],[41.63859939575195,59.714515686035156],[41.59706497192383,59.574459075927734],[40.79048156738281,59.294734954833984],[40.609432220458984,59.294734954833984],[40.275390625,59.714515686035156],[39.860355377197266,59.85470962524414],[39.737457275390625,60.065250396728516],[39.320613861083984,60.20578384399414],[39.28813171386719,60.416839599609375],[38.869571685791016,60.557716369628906],[38.54866027832031,59.714515686035156],[38.12971115112305,59.504478454589844],[38.03900909423828,59.504478454589844],[38.057376861572266,59.574459075927734],[37.694332122802734,59.574459075927734],[37.65807342529297,59.78459548950195],[37.49434280395508,59.85470962524414],[37.530792236328125,59.99503707885742],[37.366729736328125,60.065250396728516],[37.34852981567383,60.34645080566406],[37.257102966308594,60.34645080566406],[37.29450225830078,60.83990478515625],[36.74334716796875,60.83990478515625],[35.84642028808594,60.557716369628906],[35.72545623779297,60.065250396728516],[35.8166389465332,60.065250396728516],[35.76533126831055,59.85470962524414],[35.913124084472656,59.714515686035156],[35.95899200439453,59.15507125854492],[36.450199127197266,58.94581604003906],[36.42213439941406,58.45867156982422],[36.511962890625,58.45867156982422],[36.461795806884766,58.2503662109375],[36.551456451416016,58.2503662109375],[36.50153350830078,58.042335510253906],[36.591026306152344,58.042335510253906],[36.54853439331055,57.488929748535156],[37.20535659790039,57.62710189819336],[37.255943298339844,57.8345832824707],[37.52391052246094,57.8345832824707],[37.5068359375,57.7653923034668],[37.846656799316406,57.696231842041016],[37.79916000366211,57.14401626586914],[38.04844665527344,57.07511901855469],[38.455238342285156,57.28189468383789],[38.81077194213867,57.28189468383789],[39.343719482421875,56.937416076660156],[39.29169845581055,56.387733459472656],[39.08085632324219,56.25059127807617],[39.31053161621094,56.11355972290039],[39.12027359008789,55.70311737060547],[39.295616149902344,55.70311737060547],[39.3297233581543,55.83982467651367],[39.94414138793945,55.83982467651367],[40.15491485595703,55.97663879394531],[40.33198165893555,56.319149017333984],[41.975399017333984,56.524986267089844],[42.10203552246094,56.662349700927734],[42.03282928466797,56.731075286865234],[42.337066650390625,56.86860656738281],[42.415470123291016,57.14401626586914],[42.8105354309082,57.28189468383789],[42.83060073852539,57.35087585449219],[43.028709411621094,57.41988754272461],[43.00058364868164,57.62710189819336],[43.19940948486328,57.696231842041016],[43.19260025024414,57.97305679321289],[43.28203201293945,57.97305679321289],[43.53994369506836,58.528167724609375],[43.961334228515625,59.015533447265625],[44.932350158691406,59.504478454589844],[45.2044563293457,59.504478454589844],[45.15981674194336,59.64447021484375],[45.45558547973633,59.714515686035156],[45.82282257080078,59.99503707885742]]]}},{"type":"Feature","properties":{"polity_id":"grand-vladimir","name":"Principality of Vladimir-Suzdal","start_date":1333,"end_date":1343,"status":"provisional-secondary-capture","confidence":"unreviewed","legal_basis":[],"source_ids":["capture:cliopatria-v0.2.0"],"provenance":{"capture_source":"Cliopatria / Seshat Global History Databank","capture_version":"v0.2.0-compatible main snapshot","wikidata":"Q83546","wikipedia":"Vladimir-Suzdal","seshat_id":null,"source_area_km2":184522.04095271367,"captured_at":"2026-08-22"},"notes":"Bootstrap geometry only. Must be checked against Russian legal, treaty, atlas and scholarly sources before verified status."},"geometry":{"type":"Polygon","coordinates":[[[46.387638092041016,61.618961334228516],[45.82282257080078,59.99503707885742],[45.45558547973633,59.714515686035156],[45.15981674194336,59.64447021484375],[45.2044563293457,59.504478454589844],[44.932350158691406,59.504478454589844],[43.961334228515625,59.015533447265625],[43.53994369506836,58.528167724609375],[43.28203201293945,57.97305679321289],[43.19260025024414,57.97305679321289],[43.19940948486328,57.696231842041016],[43.00058364868164,57.62710189819336],[43.028709411621094,57.41988754272461],[42.83060073852539,57.35087585449219],[42.8105354309082,57.28189468383789],[42.415470123291016,57.14401626586914],[42.337066650390625,56.86860656738281],[42.03282928466797,56.731075286865234],[42.10203552246094,56.662349700927734],[41.975399017333984,56.524986267089844],[40.33198165893555,56.319149017333984],[40.15491485595703,55.97663879394531],[39.94414138793945,55.83982467651367],[39.3297233581543,55.83982467651367],[39.295616149902344,55.70311737060547],[39.12027359008789,55.70311737060547],[39.31053161621094,56.11355972290039],[39.08085632324219,56.25059127807617],[39.29169845581055,56.387733459472656],[39.343719482421875,56.937416076660156],[38.81077194213867,57.28189468383789],[38.455238342285156,57.28189468383789],[38.04844665527344,57.07511901855469],[37.79916000366211,57.14401626586914],[37.846656799316406,57.696231842041016],[38.48878479003906,57.7653923034668],[38.45222473144531,58.31977081298828],[38.362510681152344,58.31977081298828],[38.39838790893555,58.45867156982422],[38.25457763671875,58.59769821166992],[37.84033203125,58.73685073852539],[37.6425666809082,58.66725540161133],[37.607421875,58.528167724609375],[37.75201416015625,58.38920593261719],[37.6822395324707,58.11164855957031],[37.771785736083984,58.11164855957031],[37.77463912963867,57.7653923034668],[37.255943298339844,57.8345832824707],[37.20535659790039,57.62710189819336],[36.54853439331055,57.488929748535156],[36.591026306152344,58.042335510253906],[36.50153350830078,58.042335510253906],[36.551456451416016,58.2503662109375],[36.461795806884766,58.2503662109375],[36.511962890625,58.45867156982422],[36.42213439941406,58.45867156982422],[36.450199127197266,58.94581604003906],[35.95899200439453,59.15507125854492],[35.913124084472656,59.714515686035156],[35.76533126831055,59.85470962524414],[35.8166389465332,60.065250396728516],[35.72545623779297,60.065250396728516],[35.84642028808594,60.557716369628906],[36.74334716796875,60.83990478515625],[37.29450225830078,60.83990478515625],[37.257102966308594,60.34645080566406],[37.34852981567383,60.34645080566406],[37.366729736328125,60.065250396728516],[37.530792236328125,59.99503707885742],[37.49434280395508,59.85470962524414],[37.65807342529297,59.78459548950195],[37.694332122802734,59.574459075927734],[38.057376861572266,59.574459075927734],[38.03900909423828,59.504478454589844],[38.12971115112305,59.504478454589844],[38.54866027832031,59.714515686035156],[38.869571685791016,60.557716369628906],[39.28813171386719,60.416839599609375],[39.320613861083984,60.20578384399414],[39.737457275390625,60.065250396728516],[39.860355377197266,59.85470962524414],[40.275390625,59.714515686035156],[40.609432220458984,59.294734954833984],[40.79048156738281,59.294734954833984],[41.59706497192383,59.574459075927734],[41.63859939575195,59.714515686035156],[42.199363708496094,60.065250396728516],[43.01226806640625,60.91054153442383],[43.28691482543945,61.47697448730469],[43.541744232177734,61.69001388549805],[44.28272247314453,61.69001388549805],[44.492069244384766,61.7611083984375],[44.54047775268555,61.90340805053711],[46.093017578125,61.832237243652344],[46.067745208740234,61.7611083984375],[46.253116607666016,61.7611083984375],[46.387638092041016,61.618961334228516]]]}},{"type":"Feature","properties":{"polity_id":"grand-vladimir","name":"Principality of Vladimir-Suzdal","start_date":1344,"end_date":1374,"status":"provisional-secondary-capture","confidence":"unreviewed","legal_basis":[],"source_ids":["capture:cliopatria-v0.2.0"],"provenance":{"capture_source":"Cliopatria / Seshat Global History Databank","capture_version":"v0.2.0-compatible main snapshot","wikidata":"Q83546","wikipedia":"Vladimir-Suzdal","seshat_id":null,"source_area_km2":121591.43482887899,"captured_at":"2026-08-22"},"notes":"Bootstrap geometry only. Must be checked against Russian legal, treaty, atlas and scholarly sources before verified status."},"geometry":{"type":"MultiPolygon","coordinates":[[[[40.84334182739258,58.528167724609375],[40.91361999511719,58.45867156982422],[40.746116638183594,58.180992126464844],[40.70145797729492,57.696231842041016],[41.1861686706543,57.8345832824707],[41.244544982910156,58.042335510253906],[41.602508544921875,58.042335510253906],[41.58277130126953,57.97305679321289],[41.92060470581055,57.903804779052734],[42.60731506347656,58.11164855957031],[43.04264450073242,58.66725540161133],[43.60017013549805,59.015533447265625],[43.961334228515625,59.015533447265625],[43.939476013183594,58.94581604003906],[43.53994369506836,58.528167724609375],[43.28203201293945,57.97305679321289],[43.19260025024414,57.97305679321289],[43.19940948486328,57.696231842041016],[43.00058364868164,57.62710189819336],[43.028709411621094,57.41988754272461],[42.83060073852539,57.35087585449219],[42.8105354309082,57.28189468383789],[42.415470123291016,57.14401626586914],[42.337066650390625,56.86860656738281],[42.03282928466797,56.731075286865234],[42.10203552246094,56.662349700927734],[41.975399017333984,56.524986267089844],[40.33198165893555,56.319149017333984],[40.15491485595703,55.97663879394531],[39.94414138793945,55.83982467651367],[39.3297233581543,55.83982467651367],[39.295616149902344,55.70311737060547],[39.12027359008789,55.70311737060547],[39.31053161621094,56.11355972290039],[39.08085632324219,56.25059127807617],[39.29169845581055,56.387733459472656],[39.343719482421875,56.937416076660156],[38.81077194213867,57.28189468383789],[38.455238342285156,57.28189468383789],[38.04844665527344,57.07511901855469],[37.79916000366211,57.14401626586914],[37.846656799316406,57.696231842041016],[38.48878479003906,57.7653923034668],[38.52420425415039,57.903804779052734],[38.4348258972168,57.903804779052734],[38.39838790893555,58.45867156982422],[38.25457763671875,58.59769821166992],[38.07468795776367,58.59769821166992],[38.020450592041016,58.73685073852539],[37.6425666809082,58.66725540161133],[37.77463912963867,57.7653923034668],[37.255943298339844,57.8345832824707],[37.20535659790039,57.62710189819336],[36.54853439331055,57.488929748535156],[36.591026306152344,58.042335510253906],[36.50153350830078,58.042335510253906],[36.551456451416016,58.2503662109375],[36.461795806884766,58.2503662109375],[36.511962890625,58.45867156982422],[36.42213439941406,58.45867156982422],[36.450199127197266,58.94581604003906],[36.72089767456055,58.94581604003906],[36.77674865722656,58.80647277832031],[37.67790985107422,58.80647277832031],[37.893917083740234,58.94581604003906],[38.36333084106445,59.015533447265625],[38.43684387207031,59.294734954833984],[38.79894256591797,59.294734954833984],[38.94242858886719,59.15507125854492],[39.5561637878418,59.08528518676758],[40.091800689697266,58.73685073852539],[40.83198547363281,58.80647277832031],[40.773006439208984,58.59769821166992],[40.86294937133789,58.59769821166992],[40.84334182739258,58.528167724609375]]],[[[43.961334228515625,59.015533447265625],[43.98324966430664,59.08528518676758],[44.0735969543457,59.08528518676758],[44.0516242980957,59.015533447265625],[43.961334228515625,59.015533447265625]]],[[[46.387638092041016,61.618961334228516],[45.84663772583008,60.065250396728516],[45.68439483642578,59.85470962524414],[45.02305221557617,59.504478454589844],[43.95685577392578,59.574459075927734],[43.97914505004883,59.64447021484375],[42.59543991088867,59.574459075927734],[42.6168327331543,59.64447021484375],[42.07190704345703,59.64447021484375],[41.53519058227539,59.36461639404297],[41.2634391784668,59.36461639404297],[41.021793365478516,59.15507125854492],[40.79048156738281,59.294734954833984],[41.59706497192383,59.574459075927734],[41.63859939575195,59.714515686035156],[42.199363708496094,60.065250396728516],[43.01226806640625,60.91054153442383],[43.28691482543945,61.47697448730469],[43.541744232177734,61.69001388549805],[44.28272247314453,61.69001388549805],[44.492069244384766,61.7611083984375],[44.54047775268555,61.90340805053711],[46.093017578125,61.832237243652344],[46.067745208740234,61.7611083984375],[46.253116607666016,61.7611083984375],[46.387638092041016,61.618961334228516]]]]}},{"type":"Feature","properties":{"polity_id":"grand-vladimir","name":"Principality of Vladimir-Suzdal","start_date":1375,"end_date":1394,"status":"provisional-secondary-capture","confidence":"unreviewed","legal_basis":[],"source_ids":["capture:cliopatria-v0.2.0"],"provenance":{"capture_source":"Cliopatria / Seshat Global History Databank","capture_version":"v0.2.0-compatible main snapshot","wikidata":"Q83546","wikipedia":"Vladimir-Suzdal","seshat_id":null,"source_area_km2":112861.57642567728,"captured_at":"2026-08-22"},"notes":"Bootstrap geometry only. Must be checked against Russian legal, treaty, atlas and scholarly sources before verified status."},"geometry":{"type":"MultiPolygon","coordinates":[[[[40.84334182739258,58.528167724609375],[40.91361999511719,58.45867156982422],[40.746116638183594,58.180992126464844],[40.70145797729492,57.696231842041016],[41.1861686706543,57.8345832824707],[41.244544982910156,58.042335510253906],[41.602508544921875,58.042335510253906],[41.58277130126953,57.97305679321289],[41.92060470581055,57.903804779052734],[42.60731506347656,58.11164855957031],[43.04264450073242,58.66725540161133],[43.60017013549805,59.015533447265625],[43.961334228515625,59.015533447265625],[43.939476013183594,58.94581604003906],[43.53994369506836,58.528167724609375],[43.28203201293945,57.97305679321289],[43.19260025024414,57.97305679321289],[43.19940948486328,57.696231842041016],[43.00058364868164,57.62710189819336],[43.028709411621094,57.41988754272461],[42.83060073852539,57.35087585449219],[42.8105354309082,57.28189468383789],[42.415470123291016,57.14401626586914],[42.337066650390625,56.86860656738281],[42.03282928466797,56.731075286865234],[42.10203552246094,56.662349700927734],[41.975399017333984,56.524986267089844],[40.33198165893555,56.319149017333984],[40.3184700012207,56.937416076660156],[39.78678894042969,56.937416076660156],[39.822872161865234,57.07511901855469],[39.68149948120117,57.21294021606445],[39.13078689575195,57.14401626586914],[39.148521423339844,57.21294021606445],[38.455238342285156,57.28189468383789],[38.04844665527344,57.07511901855469],[37.79916000366211,57.14401626586914],[37.846656799316406,57.696231842041016],[38.48878479003906,57.7653923034668],[38.52420425415039,57.903804779052734],[38.4348258972168,57.903804779052734],[38.39838790893555,58.45867156982422],[38.25457763671875,58.59769821166992],[38.07468795776367,58.59769821166992],[38.020450592041016,58.73685073852539],[37.6425666809082,58.66725540161133],[37.77463912963867,57.7653923034668],[37.255943298339844,57.8345832824707],[37.20535659790039,57.62710189819336],[36.54853439331055,57.488929748535156],[36.591026306152344,58.042335510253906],[36.50153350830078,58.042335510253906],[36.551456451416016,58.2503662109375],[36.461795806884766,58.2503662109375],[36.511962890625,58.45867156982422],[36.42213439941406,58.45867156982422],[36.450199127197266,58.94581604003906],[36.72089767456055,58.94581604003906],[36.77674865722656,58.80647277832031],[37.67790985107422,58.80647277832031],[37.893917083740234,58.94581604003906],[38.36333084106445,59.015533447265625],[38.43684387207031,59.294734954833984],[38.79894256591797,59.294734954833984],[38.94242858886719,59.15507125854492],[39.5561637878418,59.08528518676758],[40.091800689697266,58.73685073852539],[40.83198547363281,58.80647277832031],[40.773006439208984,58.59769821166992],[40.86294937133789,58.59769821166992],[40.84334182739258,58.528167724609375]]],[[[43.961334228515625,59.015533447265625],[43.98324966430664,59.08528518676758],[44.0735969543457,59.08528518676758],[44.0516242980957,59.015533447265625],[43.961334228515625,59.015533447265625]]],[[[46.387638092041016,61.618961334228516],[45.84663772583008,60.065250396728516],[45.68439483642578,59.85470962524414],[45.02305221557617,59.504478454589844],[43.95685577392578,59.574459075927734],[43.97914505004883,59.64447021484375],[42.59543991088867,59.574459075927734],[42.6168327331543,59.64447021484375],[42.07190704345703,59.64447021484375],[41.53519058227539,59.36461639404297],[41.2634391784668,59.36461639404297],[41.021793365478516,59.15507125854492],[40.79048156738281,59.294734954833984],[41.59706497192383,59.574459075927734],[41.63859939575195,59.714515686035156],[42.199363708496094,60.065250396728516],[43.01226806640625,60.91054153442383],[43.28691482543945,61.47697448730469],[43.541744232177734,61.69001388549805],[44.28272247314453,61.69001388549805],[44.492069244384766,61.7611083984375],[44.54047775268555,61.90340805053711],[46.093017578125,61.832237243652344],[46.067745208740234,61.7611083984375],[46.253116607666016,61.7611083984375],[46.387638092041016,61.618961334228516]]]]}},{"type":"Feature","properties":{"polity_id":"grand-vladimir","name":"Principality of Vladimir-Suzdal","start_date":1395,"end_date":1414,"status":"provisional-secondary-capture","confidence":"unreviewed","legal_basis":[],"source_ids":["capture:cliopatria-v0.2.0"],"provenance":{"capture_source":"Cliopatria / Seshat Global History Databank","capture_version":"v0.2.0-compatible main snapshot","wikidata":"Q83546","wikipedia":"Vladimir-Suzdal","seshat_id":null,"source_area_km2":90644.7151277977,"captured_at":"2026-08-22"},"notes":"Bootstrap geometry only. Must be checked against Russian legal, treaty, atlas and scholarly sources before verified status."},"geometry":{"type":"MultiPolygon","coordinates":[[[[40.84334182739258,58.528167724609375],[40.91361999511719,58.45867156982422],[40.746116638183594,58.180992126464844],[40.70145797729492,57.696231842041016],[41.1861686706543,57.8345832824707],[41.244544982910156,58.042335510253906],[41.602508544921875,58.042335510253906],[41.58277130126953,57.97305679321289],[42.009986877441406,57.903804779052734],[41.990081787109375,57.8345832824707],[41.79169464111328,57.7653923034668],[41.51583480834961,57.41988754272461],[40.2664794921875,57.07511901855469],[39.66343688964844,57.14401626586914],[39.68149948120117,57.21294021606445],[39.13078689575195,57.14401626586914],[39.148521423339844,57.21294021606445],[38.79320526123047,57.21294021606445],[38.81077194213867,57.28189468383789],[38.455238342285156,57.28189468383789],[38.04844665527344,57.07511901855469],[37.79916000366211,57.14401626586914],[37.846656799316406,57.696231842041016],[38.48878479003906,57.7653923034668],[38.52420425415039,57.903804779052734],[38.4348258972168,57.903804779052734],[38.39838790893555,58.45867156982422],[38.25457763671875,58.59769821166992],[38.07468795776367,58.59769821166992],[38.020450592041016,58.73685073852539],[37.6425666809082,58.66725540161133],[37.77463912963867,57.7653923034668],[37.255943298339844,57.8345832824707],[37.20535659790039,57.62710189819336],[36.54853439331055,57.488929748535156],[36.591026306152344,58.042335510253906],[36.50153350830078,58.042335510253906],[36.551456451416016,58.2503662109375],[36.461795806884766,58.2503662109375],[36.511962890625,58.45867156982422],[36.42213439941406,58.45867156982422],[36.450199127197266,58.94581604003906],[36.72089767456055,58.94581604003906],[36.77674865722656,58.80647277832031],[37.67790985107422,58.80647277832031],[37.893917083740234,58.94581604003906],[38.36333084106445,59.015533447265625],[38.43684387207031,59.294734954833984],[38.79894256591797,59.294734954833984],[38.94242858886719,59.15507125854492],[39.5561637878418,59.08528518676758],[40.091800689697266,58.73685073852539],[40.83198547363281,58.80647277832031],[40.773006439208984,58.59769821166992],[40.86294937133789,58.59769821166992],[40.84334182739258,58.528167724609375]]],[[[46.387638092041016,61.618961334228516],[45.84663772583008,60.065250396728516],[45.68439483642578,59.85470962524414],[45.02305221557617,59.504478454589844],[43.95685577392578,59.574459075927734],[43.97914505004883,59.64447021484375],[42.59543991088867,59.574459075927734],[42.6168327331543,59.64447021484375],[42.07190704345703,59.64447021484375],[41.53519058227539,59.36461639404297],[41.2634391784668,59.36461639404297],[41.021793365478516,59.15507125854492],[40.79048156738281,59.294734954833984],[41.59706497192383,59.574459075927734],[41.63859939575195,59.714515686035156],[42.199363708496094,60.065250396728516],[43.01226806640625,60.91054153442383],[43.28691482543945,61.47697448730469],[43.541744232177734,61.69001388549805],[44.28272247314453,61.69001388549805],[44.492069244384766,61.7611083984375],[44.54047775268555,61.90340805053711],[46.093017578125,61.832237243652344],[46.067745208740234,61.7611083984375],[46.253116607666016,61.7611083984375],[46.387638092041016,61.618961334228516]]]]}},{"type":"Feature","properties":{"polity_id":"grand-vladimir","name":"Principality of Vladimir-Suzdal","start_date":1415,"end_date":1421,"status":"provisional-secondary-capture","confidence":"unreviewed","legal_basis":[],"source_ids":["capture:cliopatria-v0.2.0"],"provenance":{"capture_source":"Cliopatria / Seshat Global History Databank","capture_version":"v0.2.0-compatible main snapshot","wikidata":"Q83546","wikipedia":"Vladimir-Suzdal","seshat_id":null,"source_area_km2":84261.24387056057,"captured_at":"2026-08-22"},"notes":"Bootstrap geometry only. Must be checked against Russian legal, treaty, atlas and scholarly sources before verified status."},"geometry":{"type":"MultiPolygon","coordinates":[[[[36.978214263916016,58.528167724609375],[37.69730758666992,58.528167724609375],[37.77463912963867,57.7653923034668],[37.5068359375,57.7653923034668],[37.52391052246094,57.8345832824707],[37.34526443481445,57.8345832824707],[37.379337310791016,57.97305679321289],[37.23450469970703,58.11164855957031],[36.8204345703125,58.2503662109375],[36.978214263916016,58.528167724609375]]],[[[40.91361999511719,58.45867156982422],[40.746116638183594,58.180992126464844],[40.70145797729492,57.696231842041016],[41.1861686706543,57.8345832824707],[41.244544982910156,58.042335510253906],[41.602508544921875,58.042335510253906],[41.58277130126953,57.97305679321289],[42.009986877441406,57.903804779052734],[41.990081787109375,57.8345832824707],[41.79169464111328,57.7653923034668],[41.51583480834961,57.41988754272461],[40.2664794921875,57.07511901855469],[39.66343688964844,57.14401626586914],[39.68149948120117,57.21294021606445],[39.13078689575195,57.14401626586914],[39.148521423339844,57.21294021606445],[38.79320526123047,57.21294021606445],[38.81077194213867,57.28189468383789],[38.455238342285156,57.28189468383789],[38.04844665527344,57.07511901855469],[37.79916000366211,57.14401626586914],[37.846656799316406,57.696231842041016],[38.48878479003906,57.7653923034668],[38.39838790893555,58.45867156982422],[37.768028259277344,58.80647277832031],[37.893917083740234,58.94581604003906],[38.36333084106445,59.015533447265625],[38.43684387207031,59.294734954833984],[39.5561637878418,59.08528518676758],[40.091800689697266,58.73685073852539],[40.83198547363281,58.80647277832031],[40.773006439208984,58.59769821166992],[40.86294937133789,58.59769821166992],[40.84334182739258,58.528167724609375],[40.91361999511719,58.45867156982422]]],[[[46.387638092041016,61.618961334228516],[45.84663772583008,60.065250396728516],[45.68439483642578,59.85470962524414],[45.02305221557617,59.504478454589844],[43.95685577392578,59.574459075927734],[43.97914505004883,59.64447021484375],[42.59543991088867,59.574459075927734],[42.6168327331543,59.64447021484375],[42.07190704345703,59.64447021484375],[41.53519058227539,59.36461639404297],[41.2634391784668,59.36461639404297],[41.021793365478516,59.15507125854492],[40.79048156738281,59.294734954833984],[41.59706497192383,59.574459075927734],[41.63859939575195,59.714515686035156],[42.199363708496094,60.065250396728516],[43.01226806640625,60.91054153442383],[43.28691482543945,61.47697448730469],[43.541744232177734,61.69001388549805],[44.28272247314453,61.69001388549805],[44.492069244384766,61.7611083984375],[44.54047775268555,61.90340805053711],[46.093017578125,61.832237243652344],[46.067745208740234,61.7611083984375],[46.253116607666016,61.7611083984375],[46.387638092041016,61.618961334228516]]]]}},{"type":"Feature","properties":{"polity_id":"grand-vladimir","name":"Principality of Vladimir-Suzdal","start_date":1422,"end_date":1462,"status":"provisional-secondary-capture","confidence":"unreviewed","legal_basis":[],"source_ids":["capture:cliopatria-v0.2.0"],"provenance":{"capture_source":"Cliopatria / Seshat Global History Databank","capture_version":"v0.2.0-compatible main snapshot","wikidata":"Q83546","wikipedia":"Vladimir-Suzdal","seshat_id":null,"source_area_km2":38303.67799262183,"captured_at":"2026-08-22"},"notes":"Bootstrap geometry only. Must be checked against Russian legal, treaty, atlas and scholarly sources before verified status."},"geometry":{"type":"MultiPolygon","coordinates":[[[[37.77463912963867,57.7653923034668],[37.5068359375,57.7653923034668],[37.52391052246094,57.8345832824707],[37.34526443481445,57.8345832824707],[37.379337310791016,57.97305679321289],[37.23450469970703,58.11164855957031],[36.8204345703125,58.2503662109375],[36.871280670166016,58.45867156982422],[37.500091552734375,58.45867156982422],[37.624969482421875,58.59769821166992],[37.66223907470703,58.38920593261719],[37.75201416015625,58.38920593261719],[37.6822395324707,58.11164855957031],[37.771785736083984,58.11164855957031],[37.77463912963867,57.7653923034668]]],[[[37.79916000366211,57.14401626586914],[37.846656799316406,57.696231842041016],[38.48878479003906,57.7653923034668],[38.39838790893555,58.45867156982422],[37.768028259277344,58.80647277832031],[37.893917083740234,58.94581604003906],[38.36333084106445,59.015533447265625],[38.43684387207031,59.294734954833984],[39.5561637878418,59.08528518676758],[40.091800689697266,58.73685073852539],[40.83198547363281,58.80647277832031],[40.773006439208984,58.59769821166992],[40.91361999511719,58.45867156982422],[40.746116638183594,58.180992126464844],[40.70145797729492,57.696231842041016],[41.1861686706543,57.8345832824707],[41.244544982910156,58.042335510253906],[42.009986877441406,57.903804779052734],[41.55459976196289,57.55800247192383],[41.51583480834961,57.41988754272461],[40.2664794921875,57.07511901855469],[39.66343688964844,57.14401626586914],[39.68149948120117,57.21294021606445],[39.13078689575195,57.14401626586914],[39.148521423339844,57.21294021606445],[38.79320526123047,57.21294021606445],[38.81077194213867,57.28189468383789],[38.455238342285156,57.28189468383789],[38.04844665527344,57.07511901855469],[37.79916000366211,57.14401626586914]]]]}},{"type":"Feature","properties":{"polity_id":"grand-vladimir","name":"Principality of Vladimir-Suzdal","start_date":1463,"end_date":1481,"status":"provisional-secondary-capture","confidence":"unreviewed","legal_basis":[],"source_ids":["capture:cliopatria-v0.2.0"],"provenance":{"capture_source":"Cliopatria / Seshat Global History Databank","capture_version":"v0.2.0-compatible main snapshot","wikidata":"Q83546","wikipedia":"Vladimir-Suzdal","seshat_id":null,"source_area_km2":6484.946347733558,"captured_at":"2026-08-22"},"notes":"Bootstrap geometry only. Must be checked against Russian legal, treaty, atlas and scholarly sources before verified status."},"geometry":{"type":"MultiPolygon","coordinates":[[[[37.761131286621094,57.35087585449219],[37.846656799316406,57.696231842041016],[38.48878479003906,57.7653923034668],[38.470333099365234,58.042335510253906],[38.73880386352539,58.042335510253906],[38.77471923828125,57.488929748535156],[38.86376953125,57.488929748535156],[38.81077194213867,57.28189468383789],[38.40108871459961,57.41988754272461],[38.24303436279297,57.14401626586914],[37.79916000366211,57.14401626586914],[37.850067138671875,57.35087585449219],[37.761131286621094,57.35087585449219]]],[[[37.77463912963867,57.7653923034668],[37.5068359375,57.7653923034668],[37.52391052246094,57.8345832824707],[37.34526443481445,57.8345832824707],[37.379337310791016,57.97305679321289],[37.23450469970703,58.11164855957031],[36.8204345703125,58.2503662109375],[36.871280670166016,58.45867156982422],[37.500091552734375,58.45867156982422],[37.624969482421875,58.59769821166992],[37.66223907470703,58.38920593261719],[37.75201416015625,58.38920593261719],[37.6822395324707,58.11164855957031],[37.771785736083984,58.11164855957031],[37.77463912963867,57.7653923034668]]]]}},{"type":"Feature","properties":{"polity_id":"grand-vladimir","name":"Principality of Vladimir-Suzdal","start_date":1482,"end_date":1486,"status":"provisional-secondary-capture","confidence":"unreviewed","legal_basis":[],"source_ids":["capture:cliopatria-v0.2.0"],"provenance":{"capture_source":"Cliopatria / Seshat Global History Databank","capture_version":"v0.2.0-compatible main snapshot","wikidata":"Q83546","wikipedia":"Vladimir-Suzdal","seshat_id":null,"source_area_km2":2971.75925872999,"captured_at":"2026-08-22"},"notes":"Bootstrap geometry only. Must be checked against Russian legal, treaty, atlas and scholarly sources before verified status."},"geometry":{"type":"Polygon","coordinates":[[[36.978214263916016,58.528167724609375],[36.8204345703125,58.2503662109375],[37.23450469970703,58.11164855957031],[37.379337310791016,57.97305679321289],[37.34526443481445,57.8345832824707],[37.77463912963867,57.7653923034668],[37.69730758666992,58.528167724609375],[36.978214263916016,58.528167724609375]]]}}]}
