{"type":"FeatureCollection","metadata":{"dataset":"Rulers of Russia Territory Archive","polity_id":"novgorod-republic","polity_label":"Новгородская республика","project_owned_runtime_data":true,"external_runtime_dependencies":[],"review_status":"unreviewed-source-capture"},"features":[{"type":"Feature","properties":{"polity_id":"novgorod-republic","name":"Господин Великий Новгород","start_date":"1054","end_date":"1478","status":"provisional-source-capture","confidence":"unreviewed","legal_basis":[],"source_ids":["capture:ohm:2693548"],"provenance":{"capture_source":"OpenHistoricalMap","capture_id":2693548,"capture_date":"2026-08-22"},"notes":"One-time geometry capture. Review against project historical sources before marking verified."},"geometry":{"type":"Polygon","coordinates":[[[31.2623752,58.5267244],[31.2692785,58.5123539],[31.302495,58.5167022],[31.2931073,58.5316034],[31.2623752,58.5267244]]]}},{"type":"Feature","properties":{"polity_id":"novgorod-republic","name":"Новгородская республика","start_date":"1136","end_date":"1478","status":"provisional-source-capture","confidence":"unreviewed","legal_basis":[],"source_ids":["capture:ohm:2693549"],"provenance":{"capture_source":"OpenHistoricalMap","capture_id":2693549,"capture_date":"2026-08-22"},"notes":"One-time geometry capture. Review against project historical sources before marking verified."},"geometry":{"type":"Polygon","coordinates":[[[29.5824051,57.2773261],[29.7671124,57.2419077],[29.8800656,57.2898052],[29.9514767,57.2684632],[30.0489804,57.2747743],[30.2099987,57.2524951],[30.3404614,57.3396784],[30.6546014,57.200272],[30.9704576,57.2359632],[31.1407457,57.282755],[31.2217699,57.2552813],[31.2904354,57.2614084],[31.3076016,57.2909183],[31.374979,57.3127801],[31.3539075,57.3171834],[31.3838195,57.3322664],[31.3653659,57.3611409],[31.4120149,57.4017629],[31.3848066,57.4306982],[31.4174223,57.4737353],[31.4059639,57.4846481],[31.4274215,57.4896305],[31.4043331,57.5278291],[31.4382362,57.5357543],[31.4183664,57.5510008],[31.4676332,57.5887442],[31.4471197,57.5959432],[31.5043258,57.602336],[31.4657878,57.624679],[31.4937686,57.6366265],[31.4850139,57.6565607],[31.5110206,57.6589025],[31.5136813,57.6763004],[31.5676688,57.6765758],[31.5515327,57.6901577],[31.6029452,57.6985062],[31.5836333,57.7220735],[31.6582202,57.7506638],[31.6280936,57.7832127],[31.6742705,57.8010998],[31.61067,57.8476288],[31.6403674,57.8743854],[31.6068935,57.9080084],[31.63805,57.9234636],[31.6190814,57.9446523],[31.6289519,57.9879476],[31.6631126,58.0057332],[31.6028594,58.0219644],[31.5936755,58.0386427],[31.6145324,58.0690253],[31.5610599,58.0783302],[31.5233802,58.1080895],[31.5107631,58.1524555],[31.4748,58.1664925],[31.4933394,58.1945047],[31.4426993,58.2134083],[31.3124071,58.3267997],[31.2849413,58.4103459],[31.2927683,58.4930286],[31.2348172,58.5078652],[31.2168789,58.5464815],[30.8135175,58.671025],[30.7647657,58.6427642],[30.636363,58.6209167],[30.5916023,58.5847199],[30.6107425,58.5554937],[30.553236,58.4938733],[30.3771972,58.4770265],[30.2001285,58.5191844],[30.1209926,58.565522],[30.0703311,58.6317472],[29.8547029,58.7212397],[29.8526001,58.7370339],[29.9104714,58.7661307],[30.051384,58.7825162],[29.8114872,58.883916],[29.8083543,58.940201],[29.7855234,58.9540809],[29.6660471,58.9733308],[29.6229171,59.0160183],[29.300065,59.1135078],[29.198656,59.0846582],[29.003005,59.1325806],[28.8728427,59.2015809],[28.8368368,59.2711659],[28.7748241,59.2745647],[28.728218,59.3057737],[28.6052226,59.3090157],[28.5954379,59.3229878],[28.6270236,59.3533649],[28.5803317,59.364301],[28.6007595,59.3821412],[28.5678863,59.409539],[28.3091067,59.4327247],[28.3065318,59.4497436],[28.234949,59.4855861],[28.2600974,59.5239592],[28.2446479,59.5506334],[28.1982993,59.5769388],[28.1875705,59.6079571],[28.1417369,59.6204171],[28.3182904,59.6769288],[28.32653,59.7561551],[28.2513787,59.8100105],[28.1292346,59.8613216],[28.0065199,59.8456031],[27.9004154,59.7003852],[27.9048869,59.6344718],[28.0022192,59.5812102],[27.991957,59.5390734],[27.9491758,59.4906193],[28.0841605,59.4590081],[28.192874,59.3992979],[28.2098962,59.3699826],[28.1747815,59.3272353],[28.1970974,59.3125203],[28.3134838,59.2902606],[28.4854885,59.2993766],[28.5349272,59.2610553],[28.4545147,59.0927767],[28.5076439,59.0304032],[28.475157,58.9933713],[28.4843409,58.9600672],[28.0096006,58.9585735],[27.9574583,58.6619422],[28.1500625,58.6524326],[28.1387322,58.5550015],[28.1826779,58.4752091],[28.4468649,58.4870548],[28.4497826,58.3797589],[28.5107229,58.2605781],[28.5883139,58.2615715],[28.7134549,58.231127],[28.8078686,58.175048],[28.9338677,58.1444387],[28.8617703,58.0974771],[28.7939642,58.0150091],[28.8617703,57.971519],[28.8892361,57.8889427],[28.9359277,57.8666713],[29.0746301,57.8681321],[29.1674136,57.8075937],[29.0814968,57.7408157],[29.239425,57.6409912],[29.2119592,57.6148887],[29.2229455,57.6023823],[29.1844937,57.5852708],[29.2981335,57.483541],[29.4224163,57.4399612],[29.6510695,57.418429],[29.63253,57.3839328],[29.6444606,57.366765],[29.6115874,57.3593124],[29.6184538,57.3393078],[29.574573,57.3147559],[29.5944267,57.3033171],[29.5824051,57.2773261]]]}},{"type":"Feature","properties":{"polity_id":"novgorod-republic","name":"Новгородская республика","start_date":"1136","end_date":"1323-08-12","status":"provisional-source-capture","confidence":"unreviewed","legal_basis":[],"source_ids":["capture:ohm:2851593"],"provenance":{"capture_source":"OpenHistoricalMap","capture_id":2851593,"capture_date":"2026-08-22"},"notes":"One-time geometry capture. Review against project historical sources before marking verified."},"geometry":{"type":"MultiPolygon","coordinates":[[[[60.785114,68.9256368],[60.6617224,68.8835883],[60.5916342,68.8227403],[60.4215434,68.7478731],[60.1243215,68.7310707],[59.9183408,68.762212],[59.692179,68.6738172],[59.656068,68.6394269],[59.6737965,68.5856083],[59.809607,68.4970697],[59.8304581,68.453719],[59.7423771,68.4065255],[59.64135,68.3841046],[59.2623173,68.4402263],[59.3268708,68.5143899],[59.3057373,68.5473332],[59.2627524,68.5664629],[59.3114439,68.5871588],[59.3313623,68.6179187],[59.5465515,68.6281172],[59.6070158,68.6503202],[59.6289948,68.6812655],[59.6147278,68.7069842],[59.5466686,68.7389324],[59.56857,68.7639905],[59.5474365,68.8055076],[59.4486214,68.8345005],[59.3068754,68.9086195],[59.455416,68.9458184],[59.6418251,68.9561894],[59.6874472,68.9901933],[59.6660199,69.039643],[59.6193689,69.0763371],[59.4917027,69.1254124],[59.4622214,69.1539085],[59.4531598,69.2274767],[59.3990966,69.2729007],[59.2220369,69.3294508],[58.9179451,69.3866076],[58.8347688,69.4334241],[58.7213783,69.4451359],[58.7244914,69.4881285],[58.6571327,69.5237685],[58.4366944,69.5360527],[58.3463133,69.5090212],[58.3084829,69.4729909],[58.3101406,69.4517288],[58.3777143,69.4157948],[58.4903335,69.3985155],[58.4886684,69.372048],[58.5134871,69.3525513],[58.7620928,69.2573399],[59.0558791,69.200452],[59.0980425,69.1158951],[59.238349,69.0628475],[59.2638331,69.0327733],[58.8093308,69.0232735],[57.7408793,68.8268798],[57.2781113,68.7840355],[57.1365989,68.7541011],[57.0207225,68.6804059],[57.0400754,68.6349456],[57.1395238,68.6085392],[57.2476624,68.6151016],[57.361776,68.6579594],[57.3469097,68.6161432],[57.2661982,68.5839711],[57.118582,68.5771879],[56.9620031,68.598593],[56.8752992,68.6422123],[56.6603082,68.6743889],[56.3267692,68.6412889],[56.1771335,68.6844509],[56.0438702,68.6972624],[55.8811579,68.6836069],[55.6067946,68.6047386],[55.3400988,68.6018976],[54.8851646,68.4527316],[54.8210849,68.3786196],[54.7062924,68.3250714],[54.7168014,68.2820697],[54.7737724,68.2521174],[54.7535154,68.241078],[54.4948527,68.3985967],[54.3688725,68.4039268],[54.221419,68.3746349],[54.1215997,68.3844867],[54.0932563,68.3994448],[54.0780706,68.4768752],[54.037011,68.535982],[53.8798679,68.6279665],[53.9884239,68.6762798],[54.0060555,68.7009776],[53.9901921,68.7389845],[54.1064879,68.7772988],[54.4107419,68.7334632],[54.5211033,68.7547507],[54.5581185,68.7871083],[54.5185559,68.8274217],[54.387736,68.8649264],[54.0920413,68.8774024],[54.4326467,68.9044823],[54.5617378,68.8835551],[54.7803973,68.9005336],[54.9159131,68.8623877],[55.1471526,68.8772382],[55.2715954,68.8472783],[55.3975979,68.850703],[55.5807858,68.8194686],[55.7137365,68.845944],[55.7466932,68.8875046],[55.743893,68.911151],[55.6695504,68.9464616],[55.5069464,68.9755823],[55.1379019,68.9645547],[54.9123113,69.0243046],[54.7797775,69.0188465],[54.5401241,69.0428304],[54.0417658,69.0317744],[53.6127976,68.9839085],[52.9203425,68.8427863],[52.060724,68.6027515],[51.6917355,68.5470521],[51.1798273,68.5438513],[50.9599702,68.5109639],[50.7466765,68.4398859],[50.580162,68.3402804],[50.0700799,68.1595179],[49.1794205,67.910129],[48.9452762,67.8803822],[48.8536968,67.8936546],[48.6826608,67.9586322],[48.5111603,67.9541365],[48.4660532,67.9306962],[48.4603253,67.9064503],[48.6413042,67.8213467],[48.6425916,67.7643371],[48.6234067,67.7444522],[48.4620808,67.6990635],[48.2956292,67.7154085],[48.1208681,67.6714105],[47.9461146,67.6914917],[47.7152999,67.6009668],[47.7026079,67.5679854],[47.7293669,67.5163345],[47.801721,67.4608058],[47.7462626,67.4001534],[47.6368644,67.3433292],[47.6472757,67.2526342],[47.5884391,67.227973],[47.5572022,67.1926101],[47.6243652,67.1221067],[47.6243723,67.0548362],[47.541764,66.9818547],[46.7083335,66.879746],[46.5685126,66.9196795],[46.1924621,66.8779297],[45.9698067,66.9091666],[45.9149144,66.9320383],[45.8319325,67.0043127],[45.8104734,67.051454],[45.7529838,67.0900633],[45.7503727,67.1388868],[45.6981491,67.1859283],[45.1896555,67.301601],[45.0455212,67.3570816],[45.0389699,67.3766256],[45.0642141,67.4343509],[45.1292443,67.4841398],[45.2492463,67.5293283],[45.3416072,67.5283176],[45.4226676,67.5550625],[45.4799036,67.6329701],[45.4679748,67.677416],[45.5503852,67.6994718],[45.8745751,67.7048152],[46.0027461,67.7351656],[46.3497442,67.7682843],[46.7035318,67.754352],[46.8185872,67.7893303],[46.8476125,67.8459765],[46.8342186,67.8995578],[46.6704832,68.0349685],[46.6606568,68.1333734],[46.4286043,68.2602537],[46.4907035,68.2799171],[46.513572,68.3139027],[46.4975467,68.349552],[46.4567227,68.375328],[46.2752003,68.4103565],[46.0572636,68.4815643],[45.5043614,68.5718239],[45.037959,68.5997207],[44.0896174,68.5821504],[43.8150585,68.6591198],[43.5106471,68.711451],[43.2232035,68.7082689],[43.1654744,68.6885781],[43.1420579,68.6598462],[43.204619,68.5904865],[43.457743,68.4872532],[43.8982083,68.3581644],[44.0851796,68.2744594],[44.0883523,68.2075617],[44.0592801,68.0898559],[44.0089992,68.0094597],[44.0279433,67.9576319],[43.973249,67.8512083],[44.0023366,67.7610229],[43.9378403,67.6961689],[43.9122355,67.6335866],[43.8162984,67.5476929],[43.7076987,67.4107991],[43.6325053,67.2674135],[43.645226,67.1940438],[43.6894805,67.1590931],[43.8588546,67.1054923],[44.0531005,67.1041195],[44.3547059,66.9113779],[44.3363366,66.8792192],[44.3498095,66.8452913],[44.2637929,66.8175528],[44.2256557,66.783548],[44.239816,66.7361268],[44.3270606,66.6669742],[44.2506542,66.5764768],[44.2452656,66.531919],[44.1003233,66.4484571],[44.0026375,66.3417721],[43.9407285,66.2297801],[43.8099605,66.2483795],[43.7575859,66.2935096],[43.6446239,66.3452423],[43.4636962,66.3754025],[43.4045531,66.4261128],[43.3179029,66.4582891],[43.1297912,66.468405],[42.7458336,66.451377],[42.6621159,66.4906546],[42.3772269,66.5540433],[42.2300941,66.5676052],[42.1138315,66.5543104],[41.9746657,66.5033051],[41.846461,66.3885399],[41.7411725,66.3518491],[41.6169761,66.253372],[41.382198,66.1434973],[41.002565,66.0623617],[40.6330532,66.0184775],[40.3217699,65.8226398],[40.0428007,65.7245561],[39.7862214,65.6673543],[39.667545,65.6065843],[39.6064854,65.5420961],[39.5692766,65.4293971],[39.5902561,65.3388348],[39.7982974,65.2100523],[39.904087,65.128793],[39.9312487,65.0861365],[40.0256917,65.031512],[40.0888696,64.8971077],[40.1368435,64.8432836],[39.8673901,64.797846],[39.7327857,64.7187923],[39.6542197,64.6074721],[39.5801249,64.6048395],[39.3589114,64.6888036],[39.1671838,64.7143577],[38.9414913,64.787997],[38.6066532,64.8215268],[38.4063562,64.8967557],[38.1544228,64.899487],[37.9786022,64.9306114],[37.8324741,64.9853058],[37.8232775,65.0376368],[37.752919,65.0760188],[37.4461908,65.1512071],[37.077575,65.2199856],[36.9653389,65.2192034],[36.8669842,65.2625625],[36.7668696,65.2602003],[36.6878611,65.2333711],[36.6603509,65.1949699],[36.7067637,65.1538685],[36.6955424,65.119402],[36.7305822,65.0820246],[36.6816488,64.9934356],[36.6081224,64.975682],[36.3959618,64.9769987],[36.3160401,64.9300938],[36.3177873,64.8926045],[36.3894815,64.7964218],[36.4260581,64.6912085],[36.4889916,64.6670311],[36.6221433,64.6612632],[36.8047864,64.5035834],[37.0325768,64.3579275],[37.321564,64.288016],[37.2609808,64.2704256],[37.2333251,64.240913],[37.2437601,64.2081984],[37.2908368,64.1837085],[37.3910569,64.1717928],[37.4823237,64.1956733],[37.5034233,64.225504],[37.4885081,64.2516401],[37.3723993,64.2899642],[37.4952401,64.3250783],[37.6238983,64.3023824],[37.7180477,64.3213979],[37.7947866,64.3026087],[37.8256448,64.274858],[37.7816296,64.2473559],[37.7729304,64.1949259],[37.8208728,64.1373519],[37.882376,64.1110624],[37.9122487,64.0566163],[37.8140464,64.0947704],[37.6973366,64.078861],[37.6665588,64.0561765],[37.6640041,64.0290809],[37.7647007,63.9549723],[37.570867,63.9308268],[37.5151792,63.8914686],[37.5173103,63.8566227],[37.4599997,63.842715],[37.3859046,63.8491635],[37.4183382,63.8764384],[37.4115926,63.9078682],[37.3059157,63.9419279],[37.2515224,63.9902591],[37.2799849,64.0246336],[37.257937,64.0585201],[37.3290515,64.1022857],[37.3323447,64.1416174],[37.3066824,64.1654143],[37.1887356,64.2028829],[37.0725992,64.1925042],[37.0210585,64.1516767],[37.0303764,64.1256829],[37.0966609,64.0799214],[37.0574695,64.0670548],[36.9698961,64.1078385],[36.9641571,64.1590492],[36.8730539,64.1996088],[36.8271766,64.2507106],[36.641396,64.3062904],[36.6059725,64.3505112],[36.5363253,64.3794533],[36.4308919,64.3943699],[36.3339978,64.3782568],[36.2866857,64.4236913],[36.2142269,64.4425327],[36.0272219,64.4333214],[35.7155478,64.4616258],[35.688821,64.4790828],[35.7374505,64.5078278],[35.738176,64.5505038],[35.8115625,64.5726493],[35.8320295,64.6078697],[35.7736641,64.6589922],[35.6246963,64.7360484],[35.4552179,64.7358269],[35.3619578,64.6808916],[35.3889868,64.6368129],[35.4892362,64.6165886],[35.5478909,64.5787568],[35.4960209,64.5443825],[35.4955337,64.5121242],[35.5288467,64.4855427],[35.4955549,64.4708574],[35.4321194,64.4614417],[35.3502116,64.496285],[35.3520485,64.5384455],[35.2894514,64.5674368],[35.2041433,64.5727038],[35.1317409,64.5532258],[35.0658755,64.5655468],[35.197169,64.6397861],[35.2058431,64.6724666],[35.1760985,64.7019248],[35.223423,64.7274495],[35.2325599,64.753866],[35.3151051,64.7624953],[35.3682902,64.7963665],[35.3637942,64.8274763],[35.3330808,64.8495472],[35.2217446,64.8653258],[35.3580797,64.8998432],[35.4759302,64.8943035],[35.5438999,64.9226309],[35.6189957,64.9033915],[35.8021513,64.9042495],[36.0747959,64.9689095],[36.1413873,65.0119618],[36.1403004,65.0544696],[36.1184947,65.0757263],[36.3396012,65.1128318],[36.3864203,65.1373532],[36.3933445,65.1738817],[36.3194413,65.2119742],[36.1261708,65.2131193],[36.0042168,65.2453265],[35.5200829,65.1993497],[35.3964529,65.153664],[35.3754341,65.1211283],[35.3810214,65.0895541],[35.4432103,65.0342603],[35.3328507,64.9951219],[35.1656475,65.0249729],[35.1442507,65.0870961],[35.0878854,65.1150471],[34.9161564,65.1198359],[34.9288535,65.1423977],[34.9174606,65.1679173],[34.8030542,65.2492286],[34.6893567,65.2948232],[34.7015048,65.3167587],[34.6885288,65.3401382],[34.8089446,65.4032806],[34.8131884,65.4537338],[34.9044646,65.5171918],[34.9185704,65.5628583],[35.0341263,65.5796975],[35.0662106,65.6037733],[35.0680301,65.6275728],[35.1467387,65.6688033],[35.1841244,65.7482441],[35.1566347,65.8394022],[34.9815278,65.8975399],[34.9388993,65.9356886],[34.8484633,65.9501511],[34.821477,66.004399],[34.6266017,66.1095115],[34.1212425,66.2835583],[34.004755,66.3529119],[33.9891402,66.384574],[34.0123647,66.4164531],[33.9866217,66.4462105],[33.9050038,66.4806253],[33.7597094,66.4869398],[33.6767262,66.5188354],[33.5041795,66.6377347],[33.4094225,66.6769127],[33.1309976,66.7449216],[32.7722154,66.6812619],[32.7218506,66.6553777],[32.6920493,66.5384876],[32.6994996,66.4463645],[32.7591022,66.2955623],[32.7814532,66.1152088],[32.7516407,65.960898],[32.3940248,65.5632942],[32.0662103,65.2968798],[31.2019719,64.8383537],[29.8460116,63.5078762],[29.562899,63.1668709],[29.3225043,62.6160913],[29.3499701,62.3164534],[29.4158881,62.2193187],[29.4721971,62.038919],[29.542235,61.9215037],[29.5202623,61.863274],[29.3966661,61.8367104],[29.1233812,61.8814018],[28.9228807,61.8626264],[28.9132663,61.8107731],[28.987424,61.6612041],[29.1796848,61.5711137],[29.2401096,61.5069771],[29.4009166,61.3973084],[29.5587144,61.2081216],[29.5556256,61.0579533],[29.5947644,61.0481493],[29.5892712,61.0260379],[29.6136471,61.0203828],[29.5686718,60.9701086],[29.7556112,60.8594588],[29.787712,60.8098508],[29.7710609,60.7873638],[29.7895145,60.7670827],[29.7702884,60.7570212],[29.7887417,60.7128392],[29.9260708,60.6676291],[30.03647,60.6618537],[30.0828939,60.6109789],[30.1755387,60.5976131],[30.0604361,60.5555563],[30.0362117,60.528853],[30.0580599,60.5063154],[30.0444982,60.4780411],[30.0928077,60.4490575],[30.1071081,60.3960828],[30.0574188,60.3502265],[29.9969361,60.3509154],[30.0409224,60.3176713],[30.0553575,60.2812493],[29.9490659,60.2680866],[29.9287806,60.2409473],[29.84882,60.24812],[29.865924,60.195571],[29.9124393,60.198535],[30.0137213,60.1534374],[29.9782324,60.1192965],[29.9844359,60.0650547],[29.834747,60.0549023],[29.6876184,60.1121282],[29.5665315,60.0692142],[29.5335477,60.0396843],[29.5327796,60.0118248],[29.6531292,59.9742571],[29.5777997,59.1630491],[29.5927003,58.7016885],[29.697005,58.5465281],[29.9950182,58.421903],[30.3526341,58.3124931],[30.5612434,58.1791817],[30.6357467,57.9822238],[30.5571405,57.7900024],[31.9917144,57.8595594],[32.4312839,57.8516314],[32.9900588,57.8079964],[33.2582707,57.585034],[33.6233369,57.4650247],[34.0107541,57.5570672],[34.2491647,57.7404564],[34.4652243,57.8555956],[34.9196945,57.9347881],[35.5008204,57.9901191],[36.3203568,57.994068],[36.5513171,58.05325],[36.6117499,58.1099373],[36.6729169,58.2163145],[36.5215083,58.6086749],[36.4172036,58.8561609],[35.8360778,60.0450908],[35.5976672,60.2601519],[35.5231639,60.4958319],[35.6870712,60.6568748],[36.7003162,60.8751881],[38.1754818,61.0126858],[38.9205149,60.9982403],[39.5314421,60.9041843],[40.3807798,60.6933636],[40.7979983,60.4370717],[41.2152169,60.3118527],[42.1688593,60.1416715],[44.5231639,59.858562],[47.8460116,59.9258333],[48.9188593,59.9855158],[49.6638924,60.097131],[50.1705149,60.2601519],[50.4238262,60.2231728],[50.6324354,59.9780614],[51.5860778,58.4764809],[53.2251507,58.755832],[54.6556142,58.7944543],[55.326144,59.2393442],[56.1456805,59.6785048],[57.4420381,60.2527595],[59.0959967,60.6787804],[67.4999851,61.8604385],[67.3807798,62.0565767],[66.7698526,62.2653293],[65.5032964,62.5963483],[64.8923692,63.0658042],[65.3691904,63.4746228],[65.8013096,63.8776796],[65.9354156,64.3008947],[65.7119056,64.7622219],[65.473495,65.1720405],[65.607601,65.4706666],[65.8311109,66.2085567],[66.7698526,68.0269243],[67.2057669,68.6921408],[67.4915485,68.7151587],[67.5459725,68.7478068],[67.5423931,68.7908485],[67.3914533,68.8607639],[66.6949694,68.934393],[66.5539427,69.0255695],[66.2626081,69.1212112],[65.3500579,69.2444927],[65.2408206,69.3010514],[65.1096332,69.3214519],[64.6309487,69.4795257],[63.9394224,69.6360822],[62.7639244,69.7730823],[62.2236548,69.7811804],[61.8811313,69.8004778],[61.7655418,69.8238248],[61.5575982,69.8201344],[61.4837878,69.830248],[61.3007179,69.9022974],[61.1983727,69.9169291],[61.0021173,69.8979148],[60.8253236,69.9166333],[60.6272914,69.8753855],[60.6369366,69.9185584],[60.5705138,69.9620639],[60.3649569,70.0161972],[60.2104312,70.081846],[60.2013601,70.1107655],[60.1568973,70.1321562],[59.9659673,70.1503177],[59.915454,70.1871754],[59.7064044,70.2507756],[59.50484,70.3771403],[59.237756,70.4600003],[59.2018884,70.4945869],[59.1150511,70.517124],[58.9942058,70.5168441],[58.8613006,70.4790233],[58.7031029,70.5123648],[58.5595661,70.5004511],[58.5058145,70.4650156],[58.5455946,70.4128175],[58.3754948,70.421619],[58.2713343,70.4023901],[58.238627,70.3593938],[58.2970838,70.304422],[58.2121235,70.2921915],[58.1601675,70.2613288],[58.1916704,70.1951463],[58.390365,70.1329894],[58.4608355,70.0489939],[58.5470567,69.9942868],[58.6796953,69.9323962],[58.8347295,69.8934006],[58.8925154,69.8489126],[58.9763262,69.8185247],[59.2015375,69.8030468],[59.3049619,69.7646299],[59.4127967,69.7642804],[59.3682855,69.7395136],[59.3701592,69.7079108],[59.5093466,69.6634779],[60.0369072,69.6088098],[60.0266519,69.5561089],[60.0785723,69.4843204],[60.4850566,69.2322626],[60.4825845,69.1390919],[60.5221453,69.0938543],[60.6189657,69.0525587],[60.7814019,69.0351595],[60.8074729,68.9754145],[60.785114,68.9256368]]],[[[56.6922044,68.8032523],[56.6500616,68.8498594],[56.5169931,68.8690476],[56.389491,68.8442335],[56.3320401,68.8013925],[56.3766902,68.7580506],[56.4929286,68.7404834],[56.6053204,68.7556751],[56.6922044,68.8032523]]],[[[48.0575383,68.9211032],[48.0756005,68.8016681],[48.1092766,68.7558902],[48.3260701,68.6710937],[49.1325232,68.6087663],[49.522443,68.6100947],[49.6792447,68.6400539],[49.7606529,68.689139],[49.7180005,68.7325953],[49.5976649,68.7481069],[49.9697029,68.8696522],[50.2264399,68.9226732],[50.4219574,69.0508923],[50.4597077,69.1173327],[50.4388854,69.1688668],[50.3853127,69.2163397],[50.1756533,69.3167463],[49.3816559,69.5419907],[48.9624816,69.5496608],[48.6289583,69.4989818],[48.4088812,69.4147366],[48.208567,69.3006972],[48.0890114,69.1352091],[48.0575383,68.9211032]]],[[[42.3365605,66.7042877],[42.6322366,66.6122278],[42.733132,66.6193574],[42.7905685,66.6463718],[42.8123259,66.6942349],[42.7873508,66.7441713],[42.7331205,66.7849714],[42.5666196,66.8278738],[42.3920124,66.8187085],[42.3011535,66.7645081],[42.3031635,66.7294309],[42.3365605,66.7042877]]],[[[35.6624571,64.7753732],[35.7282046,64.8218365],[35.6727356,64.8663778],[35.5306962,64.8742581],[35.4547548,64.8300238],[35.4657484,64.802289],[35.5128251,64.7783258],[35.6624571,64.7753732]]]]}},{"type":"Feature","properties":{"polity_id":"novgorod-republic","name":"Новгородская республика","start_date":"1323-08-12","end_date":"1478","status":"provisional-source-capture","confidence":"unreviewed","legal_basis":[],"source_ids":["capture:ohm:2851881"],"provenance":{"capture_source":"OpenHistoricalMap","capture_id":2851881,"capture_date":"2026-08-22"},"notes":"One-time geometry capture. Review against project historical sources before marking verified."},"geometry":{"type":"MultiPolygon","coordinates":[[[[32.1388124,70.002122],[31.8563593,70.0050167],[31.7711409,69.9737737],[31.7160438,69.8923547],[31.5855417,69.9068879],[31.437654,69.8898559],[31.3840227,69.8567359],[31.401387,69.792854],[30.8953155,69.8450293],[30.8176414,69.7948444],[30.8905984,69.7372657],[30.8736595,69.7149353],[30.9444154,69.6832279],[30.9233763,69.6697388],[30.9542528,69.6324096],[30.9465507,69.576363],[30.81799,69.5288883],[30.5159812,69.5404206],[30.2240291,69.6531205],[30.1516722,69.6693762],[30.0852915,69.6580972],[30.0912854,69.6428379],[30.137826,69.6435197],[30.1855994,69.5505719],[30.1223803,69.5166756],[30.1168881,69.4692538],[30.0345285,69.4246791],[29.9481468,69.4050014],[29.8504972,69.4228126],[29.7226467,69.3890938],[29.5704517,69.3178794],[29.3965182,69.3236938],[29.2923407,69.2979319],[29.276971,69.250761],[29.3139861,69.2312317],[29.2864934,69.1692013],[29.2487203,69.1615253],[29.2310095,69.1216852],[29.242137,69.1130186],[29.0566538,69.0152255],[28.9292868,69.0519146],[28.4157884,68.9154506],[28.4680152,68.8854349],[28.8007884,68.8692833],[28.7064097,68.7322371],[28.4339319,68.539671],[28.6461512,68.1963033],[29.3270886,68.0745422],[29.6594055,67.8029589],[30.017043,67.6735527],[29.9302245,67.5225238],[29.6160519,67.345731],[29.6440601,67.3357821],[29.5225573,67.3098971],[29.5044673,67.2855845],[29.5164949,67.2806526],[29.0728518,66.995901],[29.0331725,66.9255118],[29.0605147,66.8531003],[29.1189692,66.8014769],[29.1058565,66.7904471],[29.1494135,66.7804339],[29.3611293,66.6388082],[29.3825949,66.5984441],[29.4190358,66.5919864],[29.4106071,66.5831721],[29.4720555,66.5439006],[29.6313606,66.366276],[29.6963998,66.2687473],[29.9233057,66.1271457],[29.9926245,66.0223595],[29.9971176,65.978834],[30.0242232,65.9667021],[30.068452,65.8949649],[30.1193759,65.7522112],[30.1384654,65.668677],[30.0171088,65.6964778],[29.7218687,65.6370846],[29.8639021,65.5604438],[29.7330481,65.4725004],[29.7273933,65.4003301],[29.7465796,65.347402],[29.6017879,65.2599327],[29.6340018,65.2315851],[29.8856591,65.2062953],[29.8935882,65.1929709],[29.8193328,65.1442782],[29.8968589,65.1051397],[29.7326676,65.0912944],[29.6269757,65.0605969],[29.5993331,64.9950558],[29.6191848,64.959659],[29.6109949,64.9273109],[29.6449074,64.866493],[29.699703,64.8372234],[29.6875026,64.8188089],[29.7396283,64.7897836],[30.0429299,64.7928807],[30.0865096,64.7739882],[30.0413965,64.7411934],[30.1358375,64.6489996],[30.130109,64.6347287],[29.9894001,64.5876222],[29.9869571,64.5338969],[30.0583381,64.4508873],[30.0448663,64.4020287],[30.1099241,64.3650286],[30.3669331,64.2996872],[30.3608053,64.2813189],[30.3882735,64.2690683],[30.4824363,64.2623259],[30.5095961,64.2216872],[30.4663645,64.2044309],[30.5534022,64.1322472],[30.5535576,64.1016869],[30.4918692,64.0169518],[30.3209136,63.9095321],[30.2604128,63.8220093],[29.9723741,63.756915],[30.2441514,63.6072718],[30.2582144,63.583947],[30.3845366,63.5455091],[30.4840079,63.4667034],[30.7876915,63.4052755],[30.8501493,63.3684509],[30.9344216,63.3554973],[30.9791661,63.3077728],[31.2398348,63.2188742],[31.2548471,63.1786518],[31.2553452,63.1461864],[31.1503594,63.1124643],[30.9635918,63.0991085],[30.8702081,63.0667807],[30.8406823,63.0400209],[30.8029168,62.9221105],[30.5907433,62.8379106],[30.3902428,62.7999575],[30.2220147,62.8626635],[30.2014153,62.8134505],[30.1300042,62.7917958],[30.1464837,62.7669832],[30.0517266,62.7396337],[30.0709527,62.7154067],[30.0537865,62.6993493],[29.94255,62.680132],[29.8498528,62.7043879],[29.8402398,62.664686],[29.899978,62.6252466],[29.7784417,62.6031375],[29.7200768,62.5639326],[29.7859948,62.4723587],[29.7921746,62.4396537],[29.7750085,62.412955],[29.6129601,62.3734992],[29.5127099,62.3196411],[29.4941705,62.2768682],[29.369201,62.164861],[29.3980401,62.0897441],[29.6040337,61.9331361],[29.2579644,61.7152618],[29.2222588,61.6612031],[29.1790002,61.6429451],[29.0401266,61.6407434],[29.1796848,61.5711137],[29.2401096,61.5069771],[29.4009166,61.3973084],[29.5587144,61.2081216],[29.5556256,61.0579533],[29.5947644,61.0481493],[29.5892712,61.0260379],[29.6136471,61.0203828],[29.5686718,60.9701086],[29.7556112,60.8594588],[29.787712,60.8098508],[29.7710609,60.7873638],[29.7895145,60.7670827],[29.7702884,60.7570212],[29.7887417,60.7128392],[29.9260708,60.6676291],[30.03647,60.6618537],[30.0828939,60.6109789],[30.1749713,60.5994279],[30.0604361,60.5555563],[30.0362117,60.528853],[30.0580599,60.5063154],[30.0444982,60.4780411],[30.0928077,60.4490575],[30.1071081,60.3960828],[30.0574188,60.3502265],[29.9969361,60.3509154],[30.0409224,60.3176713],[30.0553575,60.2812493],[29.9490659,60.2680866],[29.9287806,60.2409473],[29.84882,60.24812],[29.865924,60.195571],[29.9124393,60.198535],[30.0137213,60.1534374],[29.9782324,60.1192965],[29.9844359,60.0650547],[29.834747,60.0549023],[29.6876184,60.1121282],[29.5665315,60.0692142],[29.5335477,60.0396843],[29.5327796,60.0118248],[29.6531292,59.9742571],[29.5777997,59.1630491],[29.5927003,58.7016885],[29.697005,58.5465281],[29.9950182,58.421903],[30.3526341,58.3124931],[30.5612434,58.1791817],[30.6357467,57.9822238],[30.5571405,57.7900024],[31.9917144,57.8595594],[32.4312839,57.8516314],[32.9900588,57.8079964],[33.2582707,57.585034],[33.6233369,57.4650247],[34.0107541,57.5570672],[34.2491647,57.7404564],[34.4652243,57.8555956],[34.9196945,57.9347881],[35.5008204,57.9901191],[36.3203568,57.994068],[36.5513171,58.05325],[36.6117499,58.1099373],[36.6729169,58.2163145],[36.5215083,58.6086749],[36.4172036,58.8561609],[35.8360778,60.0450908],[35.5976672,60.2601519],[35.5231639,60.4958319],[35.6870712,60.6568748],[36.7003162,60.8751881],[38.1754818,61.0126858],[38.9205149,60.9982403],[39.5314421,60.9041843],[40.3807798,60.6933636],[40.7979983,60.4370717],[41.2152169,60.3118527],[42.1688593,60.1416715],[44.5231639,59.858562],[47.8460116,59.9258333],[48.9188593,59.9855158],[49.6638924,60.097131],[50.1705149,60.2601519],[50.4238262,60.2231728],[50.6324354,59.9780614],[51.5860778,58.4764809],[53.2251507,58.755832],[54.6556142,58.7944543],[55.326144,59.2393442],[56.1456805,59.6785048],[57.4420381,60.2527595],[59.0959967,60.6787804],[67.4999851,61.8604385],[67.3807798,62.0565767],[66.7698526,62.2653293],[65.5032964,62.5963483],[64.8923692,63.0658042],[65.3691904,63.4746228],[65.8013096,63.8776796],[65.9354156,64.3008947],[65.7119056,64.7622219],[65.473495,65.1720405],[65.607601,65.4706666],[65.8311109,66.2085567],[66.7698526,68.0269243],[67.2057669,68.6921408],[67.4670237,68.7092621],[67.5303025,68.7320778],[67.5509115,68.76005],[67.5302813,68.8013695],[67.3914533,68.8607639],[66.6949694,68.934393],[66.5539427,69.0255695],[66.3329378,69.1062857],[65.4817793,69.2150951],[65.3452606,69.245791],[65.2283303,69.3050359],[65.1096332,69.3214519],[64.4029824,69.542016],[63.734802,69.6642584],[62.7639244,69.7730823],[62.2236548,69.7811804],[61.8811313,69.8004778],[61.7655418,69.8238248],[61.5575982,69.8201344],[61.4837878,69.830248],[61.3007179,69.9022974],[61.1983727,69.9169291],[61.0021173,69.8979148],[60.8253236,69.9166333],[60.6272914,69.8753855],[60.6369366,69.9185584],[60.5705138,69.9620639],[60.3649569,70.0161972],[60.2104312,70.081846],[60.2013601,70.1107655],[60.1568973,70.1321562],[59.974757,70.1471112],[59.915454,70.1871754],[59.7064044,70.2507756],[59.5136255,70.3731717],[59.237756,70.4600003],[59.1832339,70.5021795],[59.0221925,70.5198643],[58.8613006,70.4790233],[58.760742,70.5065866],[58.6124757,70.510331],[58.5113519,70.4753852],[58.5092678,70.4496309],[58.5455946,70.4128175],[58.3588929,70.4207021],[58.2543028,70.3934964],[58.238627,70.3593938],[58.2970838,70.304422],[58.1686284,70.2715771],[58.1589761,70.2464553],[58.1824245,70.2046055],[58.390365,70.1329894],[58.4608355,70.0489939],[58.5560591,69.989423],[58.6796953,69.9323962],[58.8347295,69.8934006],[58.8925154,69.8489126],[58.9763262,69.8185247],[59.2015375,69.8030468],[59.3049619,69.7646299],[59.4127967,69.7642804],[59.3682855,69.7395136],[59.3701592,69.7079108],[59.5093466,69.6634779],[60.0369072,69.6088098],[60.0266519,69.5561089],[60.0785723,69.4843204],[60.4850566,69.2322626],[60.4825845,69.1390919],[60.5221453,69.0938543],[60.6189657,69.0525587],[60.7814019,69.0351595],[60.8074729,68.9754145],[60.785114,68.9256368],[60.6617224,68.8835883],[60.5916342,68.8227403],[60.4215434,68.7478731],[60.1243215,68.7310707],[59.9183408,68.762212],[59.692179,68.6738172],[59.656068,68.6394269],[59.6737965,68.5856083],[59.809607,68.4970697],[59.8304581,68.453719],[59.7423771,68.4065255],[59.64135,68.3841046],[59.2623173,68.4402263],[59.3268708,68.5143899],[59.3057373,68.5473332],[59.2627524,68.5664629],[59.3114439,68.5871588],[59.3313623,68.6179187],[59.5465515,68.6281172],[59.6070158,68.6503202],[59.6289948,68.6812655],[59.6147278,68.7069842],[59.5466686,68.7389324],[59.56857,68.7639905],[59.5474365,68.8055076],[59.4486214,68.8345005],[59.3068754,68.9086195],[59.455416,68.9458184],[59.6418251,68.9561894],[59.6874472,68.9901933],[59.6660199,69.039643],[59.6193689,69.0763371],[59.4917027,69.1254124],[59.4622214,69.1539085],[59.4531598,69.2274767],[59.3990966,69.2729007],[59.2220369,69.3294508],[58.9179451,69.3866076],[58.8347688,69.4334241],[58.7213783,69.4451359],[58.7244914,69.4881285],[58.6571327,69.5237685],[58.4366944,69.5360527],[58.3463133,69.5090212],[58.3084829,69.4729909],[58.3101406,69.4517288],[58.3777143,69.4157948],[58.4903335,69.3985155],[58.4886684,69.372048],[58.5134871,69.3525513],[58.7620928,69.2573399],[59.0558791,69.200452],[59.0980425,69.1158951],[59.238349,69.0628475],[59.2638331,69.0327733],[58.8093308,69.0232735],[57.7408793,68.8268798],[57.2781113,68.7840355],[57.1365989,68.7541011],[57.0207225,68.6804059],[57.0400754,68.6349456],[57.1395238,68.6085392],[57.2476624,68.6151016],[57.361776,68.6579594],[57.3469097,68.6161432],[57.2661982,68.5839711],[57.118582,68.5771879],[56.9620031,68.598593],[56.8752992,68.6422123],[56.6603082,68.6743889],[56.3267692,68.6412889],[56.1771335,68.6844509],[56.0438702,68.6972624],[55.8811579,68.6836069],[55.6067946,68.6047386],[55.3400988,68.6018976],[54.8851646,68.4527316],[54.8210849,68.3786196],[54.7062924,68.3250714],[54.7168014,68.2820697],[54.7737724,68.2521174],[54.7535154,68.241078],[54.4948527,68.3985967],[54.3688725,68.4039268],[54.221419,68.3746349],[54.1215997,68.3844867],[54.0932563,68.3994448],[54.0780706,68.4768752],[54.037011,68.535982],[53.8798679,68.6279665],[53.9884239,68.6762798],[54.0060555,68.7009776],[53.9901921,68.7389845],[54.1064879,68.7772988],[54.4107419,68.7334632],[54.5211033,68.7547507],[54.5581185,68.7871083],[54.5185559,68.8274217],[54.387736,68.8649264],[54.0920413,68.8774024],[54.4326467,68.9044823],[54.5617378,68.8835551],[54.7803973,68.9005336],[54.9159131,68.8623877],[55.1471526,68.8772382],[55.2715954,68.8472783],[55.3975979,68.850703],[55.5807858,68.8194686],[55.7137365,68.845944],[55.7466932,68.8875046],[55.743893,68.911151],[55.6695504,68.9464616],[55.5069464,68.9755823],[55.1379019,68.9645547],[54.9123113,69.0243046],[54.7797775,69.0188465],[54.5401241,69.0428304],[54.0417658,69.0317744],[53.6127976,68.9839085],[52.9203425,68.8427863],[52.060724,68.6027515],[51.6917355,68.5470521],[51.1798273,68.5438513],[50.9599702,68.5109639],[50.7466765,68.4398859],[50.580162,68.3402804],[50.0700799,68.1595179],[49.1794205,67.910129],[48.9452762,67.8803822],[48.8536968,67.8936546],[48.6826608,67.9586322],[48.5111603,67.9541365],[48.4660532,67.9306962],[48.4603253,67.9064503],[48.6413042,67.8213467],[48.6425916,67.7643371],[48.6234067,67.7444522],[48.4620808,67.6990635],[48.2956292,67.7154085],[48.1208681,67.6714105],[47.9461146,67.6914917],[47.7152999,67.6009668],[47.7026079,67.5679854],[47.7293669,67.5163345],[47.801721,67.4608058],[47.7462626,67.4001534],[47.6368644,67.3433292],[47.6472757,67.2526342],[47.5884391,67.227973],[47.5572022,67.1926101],[47.6243652,67.1221067],[47.6243723,67.0548362],[47.541764,66.9818547],[46.7083335,66.879746],[46.5685126,66.9196795],[46.1924621,66.8779297],[45.9698067,66.9091666],[45.9149144,66.9320383],[45.8319325,67.0043127],[45.8104734,67.051454],[45.7529838,67.0900633],[45.7503727,67.1388868],[45.6981491,67.1859283],[45.1896555,67.301601],[45.0455212,67.3570816],[45.0389699,67.3766256],[45.0642141,67.4343509],[45.1292443,67.4841398],[45.2492463,67.5293283],[45.3416072,67.5283176],[45.4226676,67.5550625],[45.4799036,67.6329701],[45.4679748,67.677416],[45.5503852,67.6994718],[45.8745751,67.7048152],[46.0027461,67.7351656],[46.3497442,67.7682843],[46.7035318,67.754352],[46.8185872,67.7893303],[46.8476125,67.8459765],[46.8342186,67.8995578],[46.6704832,68.0349685],[46.6606568,68.1333734],[46.4286043,68.2602537],[46.4907035,68.2799171],[46.513572,68.3139027],[46.4975467,68.349552],[46.4567227,68.375328],[46.2752003,68.4103565],[46.0572636,68.4815643],[45.5043614,68.5718239],[45.037959,68.5997207],[44.0896174,68.5821504],[43.8150585,68.6591198],[43.5106471,68.711451],[43.2343825,68.7104665],[43.1430963,68.6644564],[43.204619,68.5904865],[43.457743,68.4872532],[43.8982083,68.3581644],[44.0851796,68.2744594],[44.0883523,68.2075617],[44.0592801,68.0898559],[44.0089992,68.0094597],[44.0279433,67.9576319],[43.973249,67.8512083],[44.0023366,67.7610229],[43.9378403,67.6961689],[43.9122355,67.6335866],[43.8162984,67.5476929],[43.7076987,67.4107991],[43.6325053,67.2674135],[43.645226,67.1940438],[43.6894805,67.1590931],[43.8588546,67.1054923],[44.0531005,67.1041195],[44.3547059,66.9113779],[44.3363366,66.8792192],[44.3498095,66.8452913],[44.2637929,66.8175528],[44.2256557,66.783548],[44.239816,66.7361268],[44.3270606,66.6669742],[44.2506542,66.5764768],[44.2452656,66.531919],[44.1003233,66.4484571],[44.0026375,66.3417721],[43.9407285,66.2297801],[43.8099605,66.2483795],[43.7575859,66.2935096],[43.6446239,66.3452423],[43.4636962,66.3754025],[43.4045531,66.4261128],[43.3179029,66.4582891],[43.1297912,66.468405],[42.7458336,66.451377],[42.6621159,66.4906546],[42.3772269,66.5540433],[42.2300941,66.5676052],[42.1138315,66.5543104],[41.9746657,66.5033051],[41.846461,66.3885399],[41.7411725,66.3518491],[41.6169761,66.253372],[41.382198,66.1434973],[41.002565,66.0623617],[40.6330532,66.0184775],[40.3217699,65.8226398],[40.0428007,65.7245561],[39.7862214,65.6673543],[39.667545,65.6065843],[39.6064854,65.5420961],[39.5692766,65.4293971],[39.5902561,65.3388348],[39.7982974,65.2100523],[39.904087,65.128793],[39.9312487,65.0861365],[40.0256917,65.031512],[40.0888696,64.8971077],[40.1368435,64.8432836],[39.8673901,64.797846],[39.7327857,64.7187923],[39.6542197,64.6074721],[39.5801249,64.6048395],[39.3589114,64.6888036],[39.1671838,64.7143577],[38.9414913,64.787997],[38.6066532,64.8215268],[38.4063562,64.8967557],[38.1544228,64.899487],[37.9786022,64.9306114],[37.8324741,64.9853058],[37.8232775,65.0376368],[37.752919,65.0760188],[37.4461908,65.1512071],[37.077575,65.2199856],[36.9653389,65.2192034],[36.8669842,65.2625625],[36.7668696,65.2602003],[36.6878611,65.2333711],[36.6603509,65.1949699],[36.7067637,65.1538685],[36.6955424,65.119402],[36.7305822,65.0820246],[36.6816488,64.9934356],[36.6081224,64.975682],[36.3959618,64.9769987],[36.3160401,64.9300938],[36.3177873,64.8926045],[36.3894815,64.7964218],[36.4260581,64.6912085],[36.4889916,64.6670311],[36.6221433,64.6612632],[36.8047864,64.5035834],[37.0325768,64.3579275],[37.321564,64.288016],[37.2609808,64.2704256],[37.2333251,64.240913],[37.2437601,64.2081984],[37.2908368,64.1837085],[37.3910569,64.1717928],[37.4823237,64.1956733],[37.5034233,64.225504],[37.4885081,64.2516401],[37.3723993,64.2899642],[37.4952401,64.3250783],[37.6238983,64.3023824],[37.7180477,64.3213979],[37.7947866,64.3026087],[37.8256448,64.274858],[37.7816296,64.2473559],[37.7729304,64.1949259],[37.8208728,64.1373519],[37.882376,64.1110624],[37.9122487,64.0566163],[37.8140464,64.0947704],[37.6973366,64.078861],[37.6665588,64.0561765],[37.6640041,64.0290809],[37.7647007,63.9549723],[37.570867,63.9308268],[37.5151792,63.8914686],[37.5173103,63.8566227],[37.4362629,63.8422158],[37.3859046,63.8491635],[37.4201027,63.8815932],[37.4058359,63.9132532],[37.3059157,63.9419279],[37.2515224,63.9902591],[37.2799849,64.0246336],[37.257937,64.0585201],[37.3290515,64.1022857],[37.3323447,64.1416174],[37.3066824,64.1654143],[37.1887356,64.2028829],[37.0725992,64.1925042],[37.0210585,64.1516767],[37.0303764,64.1256829],[37.0966609,64.0799214],[37.0574695,64.0670548],[36.9698961,64.1078385],[36.9641571,64.1590492],[36.8730539,64.1996088],[36.8271766,64.2507106],[36.641396,64.3062904],[36.6059725,64.3505112],[36.5363253,64.3794533],[36.4308919,64.3943699],[36.3339978,64.3782568],[36.2866857,64.4236913],[36.2142269,64.4425327],[36.0272219,64.4333214],[35.7155478,64.4616258],[35.688821,64.4790828],[35.7374505,64.5078278],[35.738176,64.5505038],[35.8115625,64.5726493],[35.8320295,64.6078697],[35.7736641,64.6589922],[35.6246963,64.7360484],[35.4552179,64.7358269],[35.3619578,64.6808916],[35.3889868,64.6368129],[35.4892362,64.6165886],[35.5478909,64.5787568],[35.4960209,64.5443825],[35.4955337,64.5121242],[35.5288467,64.4855427],[35.4955549,64.4708574],[35.4321194,64.4614417],[35.3502116,64.496285],[35.3520485,64.5384455],[35.2894514,64.5674368],[35.2041433,64.5727038],[35.1317409,64.5532258],[35.0658755,64.5655468],[35.197169,64.6397861],[35.2058431,64.6724666],[35.1760985,64.7019248],[35.223423,64.7274495],[35.2325599,64.753866],[35.3151051,64.7624953],[35.3682902,64.7963665],[35.3637942,64.8274763],[35.3330808,64.8495472],[35.2217446,64.8653258],[35.3580797,64.8998432],[35.4759302,64.8943035],[35.5438999,64.9226309],[35.6189957,64.9033915],[35.8021513,64.9042495],[36.0747959,64.9689095],[36.1413873,65.0119618],[36.1403004,65.0544696],[36.1184947,65.0757263],[36.3396012,65.1128318],[36.3864203,65.1373532],[36.3933445,65.1738817],[36.3194413,65.2119742],[36.1261708,65.2131193],[36.0042168,65.2453265],[35.5200829,65.1993497],[35.3964529,65.153664],[35.3754341,65.1211283],[35.3810214,65.0895541],[35.4432103,65.0342603],[35.3328507,64.9951219],[35.1656475,65.0249729],[35.1442507,65.0870961],[35.0878854,65.1150471],[34.9161564,65.1198359],[34.9288535,65.1423977],[34.9174606,65.1679173],[34.8030542,65.2492286],[34.6893567,65.2948232],[34.7015048,65.3167587],[34.6885288,65.3401382],[34.8089446,65.4032806],[34.8131884,65.4537338],[34.9044646,65.5171918],[34.9185704,65.5628583],[35.0341263,65.5796975],[35.0662106,65.6037733],[35.0680301,65.6275728],[35.1467387,65.6688033],[35.1841244,65.7482441],[35.1614658,65.7837722],[35.1680992,65.8293029],[34.9815278,65.8975399],[34.9388993,65.9356886],[34.8484633,65.9501511],[34.821477,66.004399],[34.6266017,66.1095115],[34.1212425,66.2835583],[34.004755,66.3529119],[33.9891402,66.384574],[34.0110848,66.4222417],[33.9646652,66.4568555],[33.882125,66.4850237],[33.7597094,66.4869398],[33.6512806,66.5449097],[33.7996287,66.5575288],[33.8356732,66.5906643],[33.816397,66.6219027],[34.0060016,66.6322183],[34.1773834,66.6110028],[34.3585687,66.5066008],[34.4413648,66.4880699],[34.5903067,66.4904035],[34.8383505,66.5421958],[35.1049373,66.4330051],[35.4837845,66.3367835],[36.503702,66.2239455],[36.7527874,66.2309465],[36.9275832,66.2113423],[37.2908908,66.154069],[37.58634,66.0692462],[37.8482424,66.0381468],[38.3899196,66.0034263],[38.749122,66.012547],[38.9588953,66.0553692],[39.1523613,66.0525422],[39.5184411,66.1322487],[40.0630422,66.2090091],[40.3487405,66.3255084],[40.4669424,66.3417058],[40.6824855,66.4278844],[40.7640011,66.4410747],[40.8286885,66.482593],[40.8361088,66.5476834],[41.2070409,66.7150032],[41.3577507,66.8169711],[41.4246768,66.9451068],[41.5012383,67.0057273],[41.5074452,67.0348555],[41.4829278,67.0605526],[41.5259068,67.0852878],[41.5376094,67.1188379],[41.4736785,67.1599715],[41.4940389,67.1990662],[41.4517008,67.2417441],[41.3567002,67.2670162],[41.2231144,67.2717135],[41.2562397,67.4017139],[41.2274963,67.4500079],[41.142787,67.494071],[41.1279679,67.5509977],[41.1778611,67.6169418],[41.1540155,67.6702389],[41.0583201,67.7467506],[40.9516894,67.7768053],[40.8560346,67.7797119],[40.761147,67.8337437],[40.522783,67.885528],[40.3913563,67.9489525],[40.2308892,67.9844182],[40.0778387,68.057385],[40.0376864,68.1111284],[39.9714208,68.1527433],[39.8484041,68.1952316],[39.7379951,68.2086907],[39.6443379,68.194283],[39.6016752,68.1595717],[39.6275348,68.1155854],[39.4622227,68.1484576],[39.2875702,68.2257888],[39.1259376,68.2624263],[39.0674833,68.3097621],[38.8496643,68.3606213],[38.7358065,68.4170749],[38.4565003,68.4509751],[38.2140723,68.5297824],[38.0863869,68.609564],[37.959763,68.6509198],[37.8931126,68.7245804],[37.6921943,68.7558047],[37.6275517,68.8093878],[37.1846301,68.9004299],[36.5580458,69.0751277],[36.5092421,69.1046283],[36.1022705,69.1875694],[35.9707462,69.2380058],[35.2499308,69.3072554],[35.0843489,69.3006162],[35.0077079,69.2658438],[34.8697511,69.3003638],[34.5497677,69.3127538],[34.5440722,69.3482097],[34.4971786,69.3743029],[34.1226837,69.4379219],[33.9588003,69.4264855],[33.8679999,69.3977305],[33.819983,69.3619245],[33.6221654,69.3568799],[33.6375653,69.3878131],[33.6280866,69.4190353],[33.5207433,69.4625734],[32.9047246,69.5213939],[33.0654097,69.550108],[33.2122126,69.6182199],[33.2724131,69.725355],[33.1576557,69.789283],[32.6552852,69.8521634],[32.1388124,70.002122]]],[[[56.6922044,68.8032523],[56.6500616,68.8498594],[56.5169931,68.8690476],[56.389491,68.8442335],[56.3320401,68.8013925],[56.3766902,68.7580506],[56.4929286,68.7404834],[56.6053204,68.7556751],[56.6922044,68.8032523]]],[[[48.0575383,68.9211032],[48.0756005,68.8016681],[48.1092766,68.7558902],[48.3260701,68.6710937],[49.1325232,68.6087663],[49.522443,68.6100947],[49.6792447,68.6400539],[49.7606529,68.689139],[49.7180005,68.7325953],[49.5976649,68.7481069],[49.9697029,68.8696522],[50.2264399,68.9226732],[50.4219574,69.0508923],[50.4597077,69.1173327],[50.4388854,69.1688668],[50.3853127,69.2163397],[50.1756533,69.3167463],[49.3816559,69.5419907],[48.9624816,69.5496608],[48.6289583,69.4989818],[48.4088812,69.4147366],[48.208567,69.3006972],[48.0890114,69.1352091],[48.0575383,68.9211032]]],[[[42.3365605,66.7042877],[42.6322366,66.6122278],[42.733132,66.6193574],[42.7905685,66.6463718],[42.8123259,66.6942349],[42.7873508,66.7441713],[42.7331205,66.7849714],[42.5666196,66.8278738],[42.3920124,66.8187085],[42.3011535,66.7645081],[42.3031635,66.7294309],[42.3365605,66.7042877]]],[[[35.6624571,64.7753732],[35.7282046,64.8218365],[35.6727356,64.8663778],[35.5306962,64.8742581],[35.4547548,64.8300238],[35.4657484,64.802289],[35.5128251,64.7783258],[35.6624571,64.7753732]]]]}}]}
