{
  "type": "FeatureCollection",
  "metadata": {
    "dataset": "Rulers of Russia History Core generated raster-georeferenced geometry",
    "recipeId": "recipe-early-rus-rurik-862-tornau",
    "fragmentId": "frag-early-rus-rurik-862-reconstruction",
    "generatedFromRasterGeoreference": true,
    "generatedFromSourceCoordinates": false,
    "sourceRasterUrl": "https://upload.wikimedia.org/wikipedia/commons/8/8d/Historical_map_of_Rus%27%2C_862.gif",
    "sourceRasterSha256": "d0cd3dedfec309a9a2ce670f2e8de1b17b5ce03ae0abca8e4ef9fde68620496c",
    "sourceRasterWidth": 1800,
    "sourceRasterHeight": 2207,
    "georeferenceMethod": "piecewise-affine-triangulation",
    "displayDatumStatus": "wgs84-from-explicit-raster-georeference",
    "geometryType": "Polygon",
    "gcpCount": 16,
    "triangleCount": 23,
    "uncertaintyKm": 120,
    "evidenceDocumentIds": ["doc-pvl-laurentian-1926", "doc-tornau-rus-862-map-1910"],
    "tracedPixelCount": 27,
    "note": "Reproducible transcription of the salmon/red 'Владения Рюрика 862–879' layer in Tornau's 1910 secondary reconstruction. Geometry verification means the pixel trace and georeference are reproducible; it does not mean a surveyed ninth-century state boundary existed. The production territorial model renders this as a low-confidence de-facto-control/frontier-zone reconstruction with explicit uncertainty."
  },
  "features": [
    {
      "type": "Feature",
      "properties": {
        "id": "frag-early-rus-rurik-862-reconstruction",
        "track": "de-facto-control",
        "history_core_status": "geometry-verified",
        "derivation_mode": "raster-georeferenced-trace",
        "source_raster_url": "https://upload.wikimedia.org/wikipedia/commons/8/8d/Historical_map_of_Rus%27%2C_862.gif",
        "source_raster_sha256": "d0cd3dedfec309a9a2ce670f2e8de1b17b5ce03ae0abca8e4ef9fde68620496c",
        "georeference_method": "piecewise-affine-triangulation",
        "georeference_gcps": [
          {"id":"lake-ladoga-center","pixel":[340,1470],"lonLat":[31.5,60.83]},
          {"id":"lake-onega-center","pixel":[480,1450],"lonLat":[35.5,61.7]},
          {"id":"pskov-label-anchor","pixel":[373,1565],"lonLat":[28.3318,57.8193]},
          {"id":"novgorod-label-anchor","pixel":[452,1565],"lonLat":[31.2755,58.5229]},
          {"id":"belozersk-label-anchor","pixel":[545,1528],"lonLat":[37.8078,60.0308]},
          {"id":"rostov-label-anchor","pixel":[570,1614],"lonLat":[39.4139,57.1859]},
          {"id":"murom-label-anchor","pixel":[575,1672],"lonLat":[42.0426,55.575]},
          {"id":"smolensk-label-anchor","pixel":[425,1690],"lonLat":[32.0453,54.7826]},
          {"id":"vitebsk-label-anchor","pixel":[400,1654],"lonLat":[30.2049,55.1904]},
          {"id":"polotsk-label-anchor","pixel":[355,1635],"lonLat":[28.784,55.487]},
          {"id":"turov-label-anchor","pixel":[330,1743],"lonLat":[27.735,52.068]},
          {"id":"pinsk-label-anchor","pixel":[285,1740],"lonLat":[26.095,52.115]},
          {"id":"kyiv-label-anchor","pixel":[418,1808],"lonLat":[30.5234,50.4501]},
          {"id":"chernihiv-label-anchor","pixel":[440,1782],"lonLat":[31.2849,51.4982]},
          {"id":"oka-volga-confluence","pixel":[605,1640],"lonLat":[44.0,56.33]},
          {"id":"volodymyr-label-anchor","pixel":[235,1765],"lonLat":[24.32,50.85]}
        ],
        "georeference_triangles": [[0,9,15],[1,3,0],[4,3,1],[10,12,15],[10,9,8],[9,2,8],[2,3,8],[2,9,0],[3,2,0],[9,11,15],[11,10,15],[10,11,9],[7,10,8],[3,7,8],[5,3,4],[5,4,14],[6,5,14],[5,7,3],[7,5,6],[13,6,12],[13,7,6],[10,13,12],[7,13,10]],
        "uncertainty_km": 120,
        "source_pixel_points": [[372,1498],[425,1495],[480,1490],[515,1496],[533,1518],[550,1555],[560,1595],[575,1625],[595,1645],[565,1680],[545,1690],[515,1690],[485,1675],[460,1660],[430,1650],[400,1645],[370,1660],[360,1690],[350,1730],[320,1740],[270,1735],[280,1705],[295,1670],[320,1630],[335,1600],[335,1560],[355,1520]],
        "transformed_source_points": [[31.396177321785476,60.141012551632244],[32.78266409266409,60.353315958815955],[34.630452013666,60.65124091520861],[36.66071641791044,60.70038805970149],[37.29167857142857,60.21907142857143],[38.106738372093024,59.13187093023256],[38.75214423076923,57.79715865384615],[40.325996153846155,56.86001923076923],[43.13903846153846,56.22769230769231],[41.247923076923076,55.27696153846154],[39.766384615384616,54.89607692307692],[37.841153846153844,54.869615384615386],[35.73653846153846,55.32019230769231],[33.599230769230765,55.713653846153845],[31.619761904761904,55.90761904761905],[30.123076923076923,55.48076923076923],[29.219722222222224,54.82416666666666],[28.82763888888889,53.85611111111111],[28.616666666666667,52.67666666666667],[27.368333333333336,52.149166666666666],[25.598181818181818,52.01909090909091],[26.204848484848487,52.96030303030303],[27.085454545454546,54.151515151515156],[28.259204545454546,55.53551136363636],[29.064712121212122,56.57219696969697],[29.78944696969697,57.87110984848485],[29.988496268656718,59.23904664179104]],
        "evidence_document_ids": ["doc-pvl-laurentian-1926", "doc-tornau-rus-862-map-1910"],
        "note": "Reproducible transcription of the salmon/red 'Владения Рюрика 862–879' layer in Tornau's 1910 secondary reconstruction. Geometry verification means the pixel trace and georeference are reproducible; it does not mean a surveyed ninth-century state boundary existed. The production territorial model renders this as a low-confidence de-facto-control/frontier-zone reconstruction with explicit uncertainty."
      },
      "geometry": {
        "type": "Polygon",
        "coordinates": [[[31.396177321785476,60.141012551632244],[32.78266409266409,60.353315958815955],[34.630452013666,60.65124091520861],[36.66071641791044,60.70038805970149],[37.29167857142857,60.21907142857143],[38.106738372093024,59.13187093023256],[38.75214423076923,57.79715865384615],[40.325996153846155,56.86001923076923],[43.13903846153846,56.22769230769231],[41.247923076923076,55.27696153846154],[39.766384615384616,54.89607692307692],[37.841153846153844,54.869615384615386],[35.73653846153846,55.32019230769231],[33.599230769230765,55.713653846153845],[31.619761904761904,55.90761904761905],[30.123076923076923,55.48076923076923],[29.219722222222224,54.82416666666666],[28.82763888888889,53.85611111111111],[28.616666666666667,52.67666666666667],[27.368333333333336,52.149166666666666],[25.598181818181818,52.01909090909091],[26.204848484848487,52.96030303030303],[27.085454545454546,54.151515151515156],[28.259204545454546,55.53551136363636],[29.064712121212122,56.57219696969697],[29.78944696969697,57.87110984848485],[29.988496268656718,59.23904664179104],[31.396177321785476,60.141012551632244]]]
      }
    }
  ]
}
