{"type":"FeatureCollection","metadata":{"dataset":"Rulers of Russia History Core verified boundary fragment","fragmentId":"frag-rf-lithuania-maritime-2003-p1-p3","status":"geometry-verified","sourceGeometry":"1997 treaty Articles 1-2 WGS84 points 1-3, connected by rhumb lines","effectiveFrom":"2003-08-12","scopeNote":"Treaty-defined EEZ and continental-shelf delimitation between Russia and Lithuania. Coordinates prevail over chart. Rendering densifies the treaty-specified rhumb lines in Mercator space."},"features":[{"type":"Feature","properties":{"name":"Российско-литовская морская линия разграничения в Балтийском море","history_core_status":"geometry-verified","history_core_confidence":"high","history_core_effective_from":"2003-08-12","history_core_document_id":"doc-rf-lithuania-maritime-1997","coordinate_system":"WGS84","line_type":"rhumb-line","source_points":[{"id":1,"lat":"55°23.040' N","lon":"20°39.227' E"},{"id":2,"lat":"55°38.175' N","lon":"19°55.466' E"},{"id":3,"lat":"55°55.420' N","lon":"19°02.805' E"}]},"geometry":{"type":"LineString","coordinates":[[20.65378333,55.384],[20.59300417,55.4050826],[20.532225,55.42615396],[20.47144583,55.44721409],[20.41066667,55.46826298],[20.3498875,55.48930064],[20.28910833,55.51032708],[20.22832917,55.53134231],[20.16755,55.55234633],[20.10677083,55.57333915],[20.04599167,55.59432077],[19.9852125,55.6152912],[19.92443333,55.63625],[19.85129306,55.66024129],[19.77815278,55.68421775],[19.7050125,55.7081794],[19.63187222,55.73212625],[19.55873194,55.75605831],[19.48559167,55.7799756],[19.41245139,55.80387812],[19.33931111,55.82776589],[19.26617083,55.85163892],[19.19303056,55.87549722],[19.11989028,55.8993408],[19.04675,55.92366667]]}}]}