{"type":"FeatureCollection","metadata":{"dataset":"Rulers of Russia History Core verified boundary fragment","fragmentId":"frag-rf-norway-delimitation-2011-p1-p8","status":"geometry-verified","sourceGeometry":"Treaty Article 1 WGS 84 geodesic points 1-8","effectiveFrom":"2011-07-07","scopeNote":"Verified treaty-defined segment from point 1 through point 8 only. The terminal extension beyond point 8 is intentionally omitted until its continental-shelf endpoint can be independently materialized."},"features":[{"type":"Feature","properties":{"name":"Российско-норвежская линия разграничения 2011 — проверенный участок 1–8","history_core_status":"geometry-verified","history_core_confidence":"high","history_core_effective_from":"2011-07-07","history_core_document_id":"doc-rf-norway-delimitation-2010","coordinate_system":"WGS 84 (G1150, epoch 2001.0)","source_points":[{"id":1,"lat_dms":"70°16'28.95\" N","lon_dms":"32°04'23.00\" E"},{"id":2,"lat_dms":"73°41'10.85\" N","lon_dms":"37°00'00.00\" E"},{"id":3,"lat_dms":"75°11'41.00\" N","lon_dms":"37°00'00.00\" E"},{"id":4,"lat_dms":"75°48'00.74\" N","lon_dms":"38°00'00.00\" E"},{"id":5,"lat_dms":"78°37'29.50\" N","lon_dms":"38°00'00.00\" E"},{"id":6,"lat_dms":"79°17'04.77\" N","lon_dms":"34°59'56.00\" E"},{"id":7,"lat_dms":"83°21'07.00\" N","lon_dms":"35°00'00.29\" E"},{"id":8,"lat_dms":"84°41'40.67\" N","lon_dms":"32°03'51.36\" E"}]},"geometry":{"type":"LineString","coordinates":[[32.07305556,70.27470833],[32.23810309,70.41335551],[32.40540964,70.55185047],[32.57502131,70.69018993],[32.74698539,70.82837053],[32.92135038,70.9663888],[33.09816604,71.10424118],[33.27748342,71.24192401],[33.45935488,71.37943352],[33.64383418,71.51676584],[33.83097644,71.65391699],[34.02083828,71.79088286],[34.21347779,71.92765925],[34.40895459,72.06424181],[34.60732988,72.20062608],[34.80866653,72.33680746],[35.01302904,72.47278121],[35.22048367,72.60854247],[35.43109845,72.74408621],[35.64494325,72.87940726],[35.86208981,73.0145003],[36.08261185,73.14935984],[36.30658505,73.28398022],[36.5340872,73.41835561],[36.76519815,73.55248001],[37.0,73.68634722],[37.0,73.82347222],[37.0,73.96059722],[37.0,74.09772222],[37.0,74.23484722],[37.0,74.37197222],[37.0,74.50909722],[37.0,74.64622222],[37.0,74.78334722],[37.0,74.92047222],[37.0,75.05759722],[37.0,75.19472222],[37.12059655,75.27063538],[37.24241432,75.34648549],[37.36547133,75.42227156],[37.48978597,75.4979926],[37.61537692,75.57364757],[37.74226324,75.64923544],[37.87046435,75.72475513],[38.0,75.80020556],[38.0,75.94887164],[38.0,76.09753772],[38.0,76.2462038],[38.0,76.39486989],[38.0,76.54353597],[38.0,76.69220205],[38.0,76.84086813],[38.0,76.98953421],[38.0,77.13820029],[38.0,77.28686638],[38.0,77.43553246],[38.0,77.58419854],[38.0,77.73286462],[38.0,77.8815307],[38.0,78.03019678],[38.0,78.17886287],[38.0,78.32752895],[38.0,78.47619503],[38.0,78.62486111],[37.64390711,78.70891521],[37.28255624,78.79253811],[36.91585674,78.87572007],[36.54371699,78.95845114],[36.16604432,79.04072109],[35.78274519,79.12251946],[35.39372513,79.20383553],[34.99888889,79.28465833],[34.99891577,79.42991855],[34.9989434,79.57517877],[34.99897179,79.72043898],[34.99900099,79.8656992],[34.99903103,80.01095942],[34.99906195,80.15621964],[34.99909378,80.30147986],[34.99912658,80.44674008],[34.99916037,80.59200029],[34.99919522,80.73726051],[34.99923117,80.88252073],[34.99926827,81.02778095],[34.99930658,81.17304117],[34.99934617,81.31830139],[34.99938709,81.4635616],[34.99942941,81.60882182],[34.99947322,81.75408204],[34.99951859,81.89934226],[34.9995656,82.04460248],[34.99961435,82.18986269],[34.99966494,82.33512291],[34.99971746,82.48038313],[34.99977205,82.62564335],[34.99982882,82.77090357],[34.9998879,82.91616379],[34.99994944,83.061424],[35.00001361,83.20668422],[35.00008056,83.35194444],[34.7608479,83.48684811],[34.51154444,83.62163447],[34.25152762,83.75629591],[33.9800999,83.89082418],[33.69650297,84.02521029],[33.39991104,84.15944441],[33.08942336,84.29351583],[32.7640557,84.42741279],[32.42273066,84.56112243],[32.06426667,84.69463056]]}}]}