{"type":"FeatureCollection","metadata":{"dataset":"Rulers of Russia History Core verified boundary fragment","fragmentId":"frag-rf-norway-varanger-2008-p1-p6","status":"geometry-verified","sourceGeometry":"2007 Agreement Article 2 WGS84 points 1-6","effectiveFrom":"2008-07-09","scopeNote":"Complete six-point delimitation line defined by the 2007 Varangerfjord agreement; point 6 joins point 1 of the 2010 Barents Sea treaty."},"features":[{"type":"Feature","properties":{"name":"Российско-норвежская линия разграничения в Варангер-фьорде 2008","history_core_status":"geometry-verified","history_core_confidence":"high","history_core_effective_from":"2008-07-09","history_core_document_id":"doc-rf-norway-varanger-2007","coordinate_system":"WGS84","source_points":[{"id":1,"lat_dms":"69°47'41.42\" N","lon_dms":"30°49'03.55\" E"},{"id":2,"lat_dms":"69°58'45.49\" N","lon_dms":"31°06'15.58\" E"},{"id":3,"lat_dms":"70°05'58.84\" N","lon_dms":"31°26'41.28\" E"},{"id":4,"lat_dms":"70°07'15.20\" N","lon_dms":"31°30'19.43\" E"},{"id":5,"lat_dms":"70°11'51.68\" N","lon_dms":"31°46'33.57\" E"},{"id":6,"lat_dms":"70°16'28.95\" N","lon_dms":"32°04'23.00\" E"}]},"geometry":{"type":"LineString","coordinates":[[30.81765278,69.79483889],[30.85321235,69.81792212],[30.88884995,69.84099818],[30.92456582,69.86406706],[30.9603602,69.88712873],[30.99623333,69.91018316],[31.03218548,69.93323033],[31.06821688,69.95627021],[31.14667173,69.99438507],[31.18907694,70.0094573],[31.23155426,70.02451474],[31.27410396,70.0395573],[31.31672631,70.05458485],[31.35942157,70.0695973],[31.40219003,70.08459453],[31.4448,70.09967778],[31.45237044,70.10232936],[31.45994221,70.10498052],[31.46751531,70.10763126],[31.47508975,70.11028157],[31.48266553,70.11293147],[31.49024265,70.11558094],[31.49782111,70.11822998],[31.50539722,70.12088889],[31.53916607,70.13049769],[31.57300166,70.14009942],[31.60690418,70.14969397],[31.64087379,70.15928134],[31.6749107,70.16886141],[31.70901509,70.17843408],[31.74318717,70.18799924],[31.77742713,70.19755677],[31.81405147,70.20719693],[31.85070971,70.21682948],[31.88740188,70.22645433],[31.92412799,70.23607141],[31.96088808,70.24568062],[31.99768216,70.25528188],[32.03451027,70.26487509],[32.07305556,70.27470833]]}}]}