{"type":"FeatureCollection","metadata":{"dataset":"Rulers of Russia History Core verified boundary fragment","fragmentId":"frag-ussr-norway-varanger-1958-p1-p4","status":"geometry-verified","sourceGeometry":"1957 demarcated frontier, officially recalculated without positional change in the 2007 WGS84 agreement","effectiveFrom":"1958-03-17","effectiveTo":"2008-07-08","scopeNote":"The geometry uses the 2007 agreement's WGS84 points 1-4 only because the Russian ratification record explicitly states that the position of the points and the 1957 line remained unchanged. The 2008 agreement supersedes this rendering from 9 July 2008."},"features":[{"type":"Feature","properties":{"name":"Советско-норвежская морская граница в Варангер-фьорде — подтвержденный участок","history_core_status":"geometry-verified","history_core_confidence":"high","history_core_effective_from":"1958-03-17","history_core_effective_to":"2008-07-08","history_core_document_ids":["doc-ussr-norway-varanger-protocol-1957","doc-rf-norway-varanger-2007","doc-rf-norway-varanger-ratification-33fz-2008"],"coordinate_system":"WGS84 official 2007 recalculation of unchanged 1957 line"},"geometry":{"type":"LineString","coordinates":[[30.81765278,69.79483889],[30.85321235,69.81792212],[30.88884995,69.84099818],[30.92456582,69.86406706],[30.9603602,69.88712873],[30.99623333,69.91018316],[31.03218548,69.93323033],[31.06821688,69.95627021],[31.10432778,69.97930278],[31.14667173,69.99438507],[31.18907694,70.0094573],[31.23155426,70.02451474],[31.27410396,70.0395573],[31.31672631,70.05458485],[31.35942157,70.0695973],[31.40219003,70.08459453],[31.4448,70.09967778],[31.45237044,70.10232936],[31.45994221,70.10498052],[31.46751531,70.10763126],[31.47508975,70.11028157],[31.48266553,70.11293147],[31.49024265,70.11558094],[31.49782111,70.11822998],[31.50539722,70.12088889]]}}]}